VTS Site Number,Trading Name,VTS Address Line 1,VTS Address Line 2,VTS Address Line 3,VTS Address Line 14,VTS Postcode,VTS Telephone Number,1,2,3,4,5,7
V108297,"SPECIALIST CARS, SKODA,SEAT.",CRAIGSHAW ROAD,WEST TULLOS,,ABERDEEN,AB12 3ZG,_01224 402900,0,0,0,1,0,0
S000259,HALFORDS AUTOCENTRE,5 - 7 ST CLAIR STREET,,,ABERDEEN,AB24 5TT,_01224630103,0,0,0,1,0,1
95863,CAMPBELLS GARAGE,BLACKHOUSE INDUSTRIAL ESTATE,,,PETERHEAD,AB42 1BW,_01779470053,0,0,1,1,0,0
96236,GILLANDERS MOTORS LIMITED,BLACKHOUSE INDUSTRIAL ESTATE,,,PETERHEAD,AB42 7BW,_01779479777,0,0,0,1,0,1
6099BA,ABERDEENSHIRE COUNCIL,MINTLAW REPAIR DEPOT,MINTLAW,,PETERHEAD,AB42 8EE,_01771676650,0,0,0,1,1,1
V108956,GATES OF STEVENAGE,105 ASHLEY ROAD,,,ST ALBANS,AL1 5GD,_01727 791300,0,0,0,1,1,1
V108268,OSMAN MOTORS,216A HERBERT ROAD,SMALL HEATH,,BIRMINGHAM,B10 0GY,_01215727867,0,0,0,1,0,0
1ALR25,MSL CENTRE LTD,180-182 STRATFORD ROAD,SPARKBROOK,,BIRMINGHAM,B11 1AQ,_0121 7728282,0,0,0,1,1,1
54056,WEST WAY,884 WARWICK ROAD,TYSELEY,,BIRMINGHAM,B11 2ES,_0121 765 4321,0,0,0,1,0,0
V103942,SAKIS AUTO CENTRE,UNIT 2B COLE RIVER PARK,WARWICK ROAD,TYSLEY,BIRMINGHAM,B11 2QR,_0121 773 7786,0,0,0,1,1,1
6860BB,UK EUROPEAN INCORPORATED LTD,106 ICKNIELD PORT ROAD,LADYWOOD,,BIRMINGHAM,B16 0RB,_01214542712,0,0,0,1,0,0
7246B1,WHEEL ALIGNMENT CENTRE,264 OXHILL ROAD,HANDSWORTH,,BIRMINGHAM,B20 8ER,_01215238600,0,0,0,1,0,0
S001846,ANR MOT CENTRE LIMITED,UNIT C,PARK LANE INDUSTRIAL ESTATE,,BIRMINGHAM,B21 8LP,_0121 553 2709,0,0,0,1,1,1
55865,HALFORDS AUTOCENTRE,UNIT G,991 KINGSBURY ROAD,ERDINGTON,BIRMINGHAM,B24 9QP,_0121 377 7681,0,0,0,1,0,0
8016BJ,PARTRIDGE MOTORS LTD,UNIT 3 HUDSONS TRADING ESTATE,HUDSONS DRIVE,COTTERIDGE,BIRMINGHAM,B30 3BD,_0121 4333088,1,1,0,1,0,0
V107388,PALMERS PERFORMANCE CARS LIMITED,UNIT 10 SELECTA AVENUE,GREAT  BARR,,BIRMINGHAM,B44 9XA,_0121 360 2911,0,0,0,1,0,0
V104501,WITTON CAR CARE CENTRE LTD,318 WITTON ROAD,,ASTON,BIRMINGHAM,B6 6NZ,_01213287998,0,0,0,1,0,0
7245BY,ARNOLD CLARK,OLDBURY RINGWAY,OLDBURY,,OLDBURY,B69 2AR,_01215440990,0,0,0,1,0,0
0563B6,THE LODGE TYRE COMPANY LTD,UNIT 2,ADAMS STREET,NECHELLS,BIRMINGHAM,B7 4DH,_0121 3596556,0,0,0,1,1,1
55834,VAUXHALL ROAD SERVICE STATION,37 VAUXHALL ROAD,NECHELLS,,BIRMINGHAM,B7 4HQ,_01213595006,0,0,0,1,0,0
1AKZ08,ARNOLD CLARK,MILLENIUM PARK,NEW SWAN LANE,,WEST BROMWICH,B70 0NN,_01215241797,0,0,0,1,0,0
V100457,NATIONWIDE CAR AND COMMERCIAL LIMITED,93 UNION STREET,,,WEST BROMWICH,B70 6DG,_0121 580 2953,0,0,0,1,0,1
V101109,VANTAGE TOYOTA TAMWORTH,VENTURA PARK ROAD,,,TAMWORTH,B78 3LT,_01827 303300,0,0,0,1,0,0
1AKW64,CITY AUTO CENTRE LIMITED,1A ANTHONY ROAD,ALUM ROCK,,BIRMINGHAM,B8 3UA,_0121 3287600,0,0,0,1,0,0
S002225,DUDDESTON MOT CENTRE LTD,UNIT 5 VAUXHALL TRADING ESTATE,DOLLMAN STREET,,BIRMINGHAM,B8 4RA,_074508 99981,0,0,0,1,0,0
V103154,DASH MOTOR SERVICES LIMITED,UNIT 6 VICTORIA WORKS,BIRMINGHAM ROAD,,STUDLEY,B80 7AP,_01527 853585,0,0,0,1,0,0
V100904,SYTNER SOLIHULL,120 HIGHLANDS ROAD,SHIRLEY,,SOLIHULL,B90 4BW,_0121 733 3444,0,0,0,1,0,0
55286,HOLLANDS GARAGE,HOLLANDS CORNER,129/131 LODGE ROAD,KNOWLE,SOLIHULL,B93 0HH,_01564 772234,0,0,1,1,0,0
8435A4,CHORLEY NISSAN BURNLEY,WESTGATE,,,BURNLEY,BB11 1RZ,_01282434300,0,0,0,1,0,0
V103541,KWIK - FIT,CALDERVALE ROAD,,,BURNLEY,BB12 0EJ,_01282457918,0,0,0,1,0,0
V105081,STATION YARD AUTO SERVICES,UNIT 4 STATION YARD,COLNE ROAD,EARBY,BARNOLDSWICK,BB18 6XD,_01282 844990,0,0,0,1,0,0
V107926,BLACKBURN AUTOMOTIVE,UNIT 1,PEARSON STREET,,BLACKBURN,BB2 2EQ,_01254 678444,0,0,0,1,0,0
44023,GRANGE LANE GARAGE LIMITED,19 GRANGE LANE,ACCRINGTON,,BLACKBURN,BB5 1HX,_01254392425,0,0,0,1,0,0
V105305,FOREST STREET MOT CENTRE,UNIT 3 - 5,CANAL WORKS,FOREST STREET,NELSON,BB9 7PJ,_01282 690093,0,0,0,1,1,1
V103874,MDR MOTOR CO,135 JOWETT STREET,,,BRADFORD,BD01 2JX,_01274 403273,0,0,0,1,0,0
V104747,SUNBRIDGE AUTOS LIMITED,190 SUNBRIDGE ROAD,,,BRADFORD,BD1 2LE,_01274 722888,0,0,0,1,1,1
37709,Q1 MOT STATION,CROYDON STREET,QUEENSBURY,,BRADFORD,BD13 2QH,_01274883730,0,0,0,1,0,0
6970BL,SANDY LANE GARAGE,WILSDEN ROAD,,,BRADFORD,BD15 9AQ,_01274492424,0,0,0,1,0,0
1AKY68,TECHNIKAR,PEEL PARK DRIVE,OTLEY ROAD,,BRADFORD,BD2 4PT,_01274627440,0,0,0,1,0,0
8295AJ,SKIPTON FORD,AIREDALE BUSINESS CENTRE,KEIGHLEY ROAD,,SKIPTON,BD23 2UB,_01756 700700,0,0,0,1,0,0
V101084,JCT600 PEUGEOT BRADFORD,247 STICKER LANE,,,BRADFORD,BD4 8RT,_01274 657200,0,0,0,1,0,0
2336A3,AHF MOTORS,SPENCER ROAD,LIDGET GREEN,,BRADFORD,BD7 2JR,_01274573534,0,0,0,1,0,1
37635,SINCHRO MOTOR LIMITED,113 WHETLEY LANE,,,BRADFORD,BD8 9DH,_01274542550,0,0,0,1,0,0
5786BT,THORN MOTOR COMPANY,39A ROUNDTHORN PLACE,GIRLINGTON,,BRADFORD,BD8 9NE,_01274480138,0,0,0,1,0,0
1AMB28,RIDGEWAY BOURNEMOUTH,DURLEY HOUSE,LEYLAND ROAD,,POOLE,BH12 5HA,_01202 535535,0,0,0,1,0,0
V109854,PENTON POOLE,STERTE AVENUE WEST,,,POOLE,BH15 2BE,_01202 795845,0,0,0,1,0,0
S002494,SAM TYRES,185-189 EASTON ROAD,,,BRISTOL,BH5 0HQ,_01179 555513,0,0,0,1,0,0
1003B0,HALFORDS AUTOCENTRE,318 TO 324 HOLDENHURST ROAD,,,BOURNEMOUTH,BH8 8BD,_01202394991,0,0,0,1,0,0
V109612,NATIONAL TYRES & AUTOCARE,285 HOLDENHURST ROAD,,,BOURNEMOUTH,BH8 8BQ,_01202 394285,0,0,0,1,0,0
V103268,FORGE WINTON,7 DENMARK ROAD,WINTON,,BOURNEMOUTH,BH9 1PD,_01202 529707,1,1,0,1,1,1
40589,BRISTOL STREET MOTORS BOLTON FORD,54/56 HIGHER BRIDGE STREET,,,BOLTON,BL1 2HQ,_01204524474,0,0,0,1,0,1
S001829,FARNELL JAGUAR LAND ROVER BOLTON,HIGHER BRIDGE STREET,,BOLTON,LANCASHIRE,BL1 2HQ,_01204 557 500,0,0,0,1,0,0
V104218,DISTRICT GARAGE,UNIT C1,EDGEFOLD INDUSTRIAL ESTATE,PLODDER LANE,BOLTON,BL4 0LS,_01204 854670,0,0,0,1,1,1
V101925,R S AUTOS,UNIT 2,GLADSTONE ROAD,FARNWORTH,BOLTON,BL4 7EG,_01204 572812,0,0,0,1,0,0
V100320,KWIK-FIT,85 OLD SHOREHAM ROAD,,,HOVE,BN3 7BU,_01273777799,0,0,0,1,0,0
1AKV67,MOTSHOP,PRESTWICH HOUSE,NORTH STREET,,PORTSLADE,BN41 1EE,_01273416362,0,0,0,1,0,0
8740BA,CAFFYNS PLC,VICTORIA ROAD,,,PORTSLADE,BN41 1YD,_01273425600,0,0,0,1,0,0
91959,MERCEDES BENZ OF BRIGHTON,VICTORIA ROAD,PORTSLADE,,BRIGHTON,BN41 1YJ,_01273707070,0,0,0,1,0,0
85740,FROSTS OF SHOREHAM,69-75 BRIGHTON ROAD,,,SHOREHAM BY SEA,BN43 6RT,_01273 461411,0,0,0,1,0,0
3683B0,SETYRES FAST FIT CENTRE,HIGH STREET,,,HENFIELD,BN5 9DF,_01273 495667,0,0,0,1,0,0
S001153,A Wilkins Motor Engineers,Unit 2,North Industrial Estate,New Road,Newhaven,BN9 OHE,_01273 510314,0,0,0,1,0,0
V101231,STEPHEN JAMES BROMLEY,BICKLEY ROAD,,,BROMLEY,BR1 2NH,_020 8295 8500,0,0,0,1,0,0
5280AJ,NATIONAL TYRES & AUTOCARE,151 SEVENOAKS WAY,ST PAULS CRAY,,ORPINGTON,BR5 3TY,_01689833335,0,0,0,1,0,0
5630BL,ROBINS & DAY BRISTOL,CLARENCE ROAD,TEMPLE GATE,,BRISTOL,BS1 6PZ,_01179261200,0,0,0,1,0,1
5629B6,ROBINS & DAY BRISTOL,CLARENCE ROAD,TEMPLE GATE,,BRISTOL,BS1 6PZ,_01179261242,0,0,0,1,0,0
81516,SAMPSON COMMERCIALS LTD,79 PORTVIEW ROAD,AVONMOUTH,,BRISTOL,BS11 9JG,_01179821361,0,0,0,1,1,1
81971,KWIK FIT,UNIT 1,WORLE INDUSTRIAL ESTATE,"QUEENSWAY, WORLE",WESTON SUPER MARE,BS22 0BX,_01934514777,0,0,0,1,0,0
V105555,A D S AUTOMOTIVE LTD,UNIT 200 SOUTH LIBERTY LANE,ASHTON,,BRISTOL,BS3 2TW,_01179635999,0,0,0,1,0,0
9521A3,OILY'S ENGINEERING SERVICES,UNIT 11H,DEAN ROAD,YATE,BRISTOL,BS37 5NR,_01454325216,0,0,0,1,0,1
1ALO43,CITY MOTORS (BRISTOL),PIONEER PARK,WHITBY ROAD,BRISLINGTON,BRISTOL,BS4 3QL,_01179723030,0,0,0,1,1,1
4848BF,HERITAGE AUTOMOTIVE,WHITBY ROAD,BRISLINGTON,,BRISTOL,BS4 3QL,_01179765000,0,0,0,1,0,1
1ALQ54,EURO SERVICES LTD,234-236 BROOMHILL ROAD,BRISLINGTON,,BRISTOL,BS4 5RY,_01179715745,0,0,0,1,1,1
V109660,S W D VEATER & SON,"UNIT 6, THE OLD SAWMILL",CLEEVE HILL,UBLEY,BRISTOL,BS40 6PZ,_01761 463477,0,0,0,1,1,1
V107891,THOMPSON ACCIDENT REPAIR CENTRE LTD,STEPHENSON ROAD,DURRANHILL INDUSTRIAL ESTATE,,CARLISLE,CA1 3NS,_01228 546716,0,0,0,1,1,1
27349,CROSTHWAITE GARAGE,CROSTHWAITE ROAD,,,KESWICK,CA12 5PR,_01768772606,0,0,0,1,0,0
7275B6,PROTYRE WORKINGTON,CLAY FLATTS INDUSTRIAL ESTATE,,,WORKINGTON,CA14 2TD,_01900602240,0,0,0,1,0,0
V100490,MARYPORT CAR CENTRE,GLASSON INDUSTRIAL ESTATE,,,MARYPORT,CA15 8NX,_01900 816633,1,1,0,1,1,1
0504AL,NORTHWEST VEHICLE SERVICES,WESTMORLAND STREET,,,CARLISLE,CA2 5HJ,_01228590757,0,0,0,1,0,0
9102AB,DAVID HAYTON LTD,GREARSHILL ROAD,KINGSTOWN INDUSTRIAL ESTATE,,CARLISLE,CA3 0EW,_01228 522423,0,0,0,1,0,0
V102546,CHRIS WILSON VEHICLE REPAIRS,UNIT J,HEATHLANDS INDUSTRIAL ESTATE,KINGMOOR PARK,CARLISLE,CA6 4RE,_01228 674593,0,0,0,1,0,1
V110203,AUTOSTORE EUROPE LTD,ORCHARD FARM,FOWLMERE ROAD,FOXTON,CAMBRIDGE,CB22 6TA,_01223873007,0,0,0,1,0,0
69549,FORMULA ONE AUTOCENTRES LIMITED,164 - 180 HISTON ROAD,,,CAMBRIDGE,CB4 3JS,_01223 366733,0,0,0,1,0,0
S000596,JOHN BANKS HONDA CENTRE,19 MERCERS ROW,,,CAMBRIDGE,CB5 8BY,_01223 321997,1,1,0,1,1,1
V105928,CARDIFF MOT & REPAIR CENTRE,13 ARGYLE STREET,ELY,,CARDIFF,CF05 5NP,_02920 597118,0,0,0,1,1,1
2939B7,J & P AUTOS LIMITED,206A PENARTH RD,GRANGETOWN,,CARDIFF,CF11 7NN,_02920396758,0,0,0,1,0,0
75644,NATIONAL TYRES AND AUTOCARE,UNIT 5,TOLLGATE CLOSE,PENARTH RD,CARDIFF,CF11 7TN,_02920233783,0,0,0,1,0,0
V105628,IMPERIAL CARS OF SWANWICK LIMITED,232 PENARTH ROAD,,,CARDIFF,CF11 8LR,_07702686725,0,0,0,1,0,0
S002124,M & P SERVICE CENTRE CARDIFF,UNIT 2B,GLYNSTELL PARK,GLYNSTELL CLOSE,CARDIFF,CF11 8TR,_01792 224429,1,1,0,0,0,0
0951BG,RUMNEY TEST & SERVICE CENTRE LTD,UNIT 5 ALEXANDRA TRADING EST,WENTLOOG RD,RUMNEY,CARDIFF,CF3 8LP,_02920770806,0,0,0,1,0,1
8896BG,HALFORDS AUTOCENTRE,UNIT 3,HERONSTON PARK,,BRIDGEND,CF31 3LJ,_01656767842,0,0,0,1,0,0
V109483,GRIFFIN MILL GARAGES (SKODA & NISSAN),GRIFFIN MILLL GARAGES (SKODA & NISSAN),UNIT 7/8 SEVERN ROAD,TREFOREST INDUSTRIAL ESTATE,PONTYPRIDD,CF37 5YH,_01443 824380,0,0,0,1,0,0
1768A2,THOMAS COACHES,BUS DEPOT,ABERRHONDDA RD,,PORTH,CF39 0AG,_01443 681995,0,0,0,1,1,1
S000408,ALUN WILLIAM HUGHES & HUW BRETT MORGAN,57 - 60 ABERHONDDA ROAD,PORTH,,RHONDDA,CF39 OBB,_01443 681111,0,0,0,1,0,0
4640BJ,ATS EUROMASTER LTD,DOWLAIS IND EST,,,MERTHYR TYDFIL,CF47 2SR,_01685385872,0,0,0,1,0,0
75520,FAIRWATER GARAGE LTD,NORBURY RD,FAIRWATER,,CARDIFF,CF5 4AT,_02920553383,1,1,0,1,0,0
V104945,D G WEAVER LIMITED,TALBOT ROAD,TALBOT GREEN,,PONTYCLUN,CF72 8YB,_01443 233555,0,0,0,1,0,0
5874BM,PENALLTA MOTS AND SERVICING,UNIT 4 PENALLTA IND EST,EAST RD,YSTRAD MYNACH,HENGOED,CF82 7QZ,_01443816950,0,0,0,1,0,1
75536,W T MOTORS,55 GILFACH ST,,,BARGOED,CF82 8LS,_01443839091,0,0,0,1,0,0
V103027,M53 FORD,38 GREEN LANE,,,BIRKENHEAD,CH41 9FB,_0151 6501100,0,0,0,1,0,0
V100613,MANGANESE MOTORS,UNIT 4 BRECK PLACE,OFF BRECK ROAD,,WALLASEY,CH44 3BA,_0151 638 3999,0,0,0,1,0,0
V110275,KELVIN CAR & COMMERCIAL LTD,KELVIN ROAD,SEACOMBE,,WALLASEY,CH44 7DW,_0151 3454144,0,0,0,1,0,0
1ALD86,CURZON MOTOR CO LIMITED,CHARLES ROAD,,,HOYLAKE,CH47 2HF,_01516325757,0,0,0,1,0,0
V105760,CHELMSFORD AUDI,DUKES FARM DAIRY,DAIRY ROAD,SPRINGFIELD,CHELMSFORD,CM2 6BE,_01245 463700,0,0,0,1,0,0
12425,GATES OF HARLOW,EDINBURGH WAY,,,HARLOW,CM20 2EJ,_01279770588,0,0,0,1,1,1
8827BV,JOHN PEASE,MANOR STREET,,,BRAINTREE,CM7 6JJ,_01376550502,0,0,0,1,0,1
69255,J W GIBBS,20 SPRINGWOOD DRIVE,SPRINGWOOD INDUSTRIAL ESTATE,,BRAINTREE,CM7 7YN,_01376347658,0,0,0,1,0,0
1ALW05,WESTDRIVE,GALLEYS CORNER,BRAINTREE ROAD,,BRAINTREE,CM7 8GA,_01376344000,0,0,0,1,0,0
3176BH,MARSHALL BRAINTREE SEAT,GALLEYS CORNER,,BRAINTREE ROAD,BRAINTREE,CM7 8GA,_01376 346346,0,0,0,1,0,0
1ALJ93,SILVEREX ENGINEERS LIMITED,UNIT 2A,CHAPEL HILL,,BRAINTREE,CM7 8QT,_01376551624,1,1,0,0,0,0
66256,MARKHAM AND SMITH MOTOR ENGINEERS LTD,THE GROVE GARAGE,NEWLAND STREET,,WITHAM,CM8 2AT,_01376513272,0,0,0,1,0,0
V104910,KWIK - FIT,NEWLAND STREET,,,WITHAM,CM8 2AX,_01376521551,0,0,0,1,0,0
0604BU,GLYN HOPKIN RENAULT COLCHESTER,WIMPOLE ROAD,,,COLCHESTER,CO1 2BZ,_01206 603560,0,0,0,1,0,1
V105931,EAST HILL GARAGE,EAST BAY,,,COLCHESTER,CO1 2UH,_01206 864684,0,0,0,1,0,0
2642BC,SETYRES AND EXHAUST,WOODHALL BUSINESS PARK,EASTERN BY PASS,,SUDBURY,CO10 6WH,_01787880998,0,0,0,1,0,1
66653,BAY MOTORS,DEANS CLOSE,DOVERCOURT,,HARWICH,CO12 4JA,_01255502301,0,0,0,1,0,0
V105873,COASTAL CAR AND LEISURE,HOCKLEY BUSINESS CENTRE,VALLEY ROAD,,CLACTON ON SEA,CO15 4AG,_01255223764,0,0,0,1,1,1
S002481,V DUB SPARES,OAK BUSINESS PARK,WIX ROAD,CLACTON ON SEA,ESSEX,CO16 OAT,_01255 863198,0,0,0,1,0,0
6842B9,UNDERWOODS OF COLCHESTER,SCOTTS CORNER,IPSWICH ROAD,,COLCHESTER,CO4 4HS,_01206844422,0,0,0,1,0,0
4299B8,UNDERWOODS PEUGEOT COLCHESTER,LANCASTER HOUSE,SEVERALLS LANE,,COLCHESTER,CO4 9HR,_01206 844429,0,0,0,1,0,0
1ALL92,BARRETTS HONDA,VAUXHALL ROAD,,,CANTERBURY,CT1 1HA,_01227866266,0,0,0,1,0,0
S001643,Coombe Valley MOT Centre Limited,Unit 1,Primrose Ind Estate,Coombe Valley Road,Dover Kent,CT17 OUP,_01304 809801,0,0,0,1,0,1
6539A9,CHERITON MOTOR COMPANY,VICTORIA MEWS,CHRISTCHURCH ROAD,,FOLKESTONE,CT20 2ST,_01303249239,0,0,0,1,0,0
V102005,Anderson Tyre Services,Unit 5 Plot B,Sparrows Way,Lakes View Ind Business Park,Hersden Canterbury,CT3 4JQ,_01227 711663,0,0,0,1,0,0
1AKX03,KWIK-FIT,401-403 FOLESHILL ROAD,,,COVENTRY,CV1 4NY,_02476251747,0,0,0,1,0,0
V105797,SKY BLUE GARAGE,17 LYTHALLS LANE INDUSTRIAL ESTATE,,FOLESHILL,COVENTRY,CV6 6FJ,_02476 663300,0,0,0,1,0,0
7318B0,MEL'S AUTOCENTRE,LUDFORD STREET GARAGE,51 LUDFORD STREET,,CREWE,CW1 2NF,_01270 588311,0,0,0,1,0,0
0384B7,FREE IDEAS LIMITED,OLD STATION,CREWE ROAD,WHEELOCK,SANDBACH,CW11 0QG,_01270768386,0,0,0,1,0,0
V103818,KWIK - FIT,12 CHESTERWAY,,,NORTHWICH,CW9 5JT,_01606330166,0,0,0,1,0,0
S001433,SK MOT TESTING CENTRE LIMITED,REAR OF 4 - 12 PERRY STREET,LANDSDOWN PLACE,NORTHFLEET,KENT,DA11 7QU,_07969 845951,0,0,0,1,1,1
V104012,RIVERSIDE MOT CENTRE,RIVERSIDE MOT CENTRE,UNITS B4 AND B8 LION BUSINESS PARK,DERING WAY,GRAVESEND,DA12 2DX,_01474 533533,1,1,0,1,1,1
8610AV,HILLTOWN MOTORS,DONS ROAD,,,DUNDEE,DD1 9AS,_01382228758,0,0,0,1,0,0
3214AU,ROBBIES GARAGE,9 DISHLANDTOWN STREET,,,ARBROATH,DD11 9QX,_01241872129,0,0,0,1,0,0
V107834,DUNDEE CITY COUNCIL,34 HAREFIELD ROAD,,,DUNDEE,DD2 3JX,_01382 434773,0,0,0,1,1,1
S002190,ATS EUROMASTER LIMITED,QUEENSWELL ROAD,,,FORFAR,DD3 8HZ,_01307 464501,0,0,0,1,0,0
1ALM02,STRUAN TOYOTA,CLAVERHOUSE BUSINESS PARK,FORFAR ROAD,,DUNDEE,DD4 9BZ,_01382868788,0,0,0,1,0,1
V108658,CARNOUSTIE TYRES,CARNOUSTIE TYRES,100 BARRY ROAD,,CARNOUSTIE,DD7 6QU,_01241 856666,0,0,0,1,0,0
S000213,EDEN TYRE SALES LIMITED,UNITS 4 - 6,ALBION GATEWAY,DERBY ROAD,BURTON ON TRENT,DE13 OBH,_01283 245500,0,0,0,1,1,1
V110530,STRATSTONE BMW DERBY,UNIT 3 EAGLE PARK,ALFRETON ROAD,,DERBY,DE21 4AE,_07970 311293,0,0,0,1,0,0
1ALI22,BRISTOL STREET MOTORS DERBY,NISSAN RENAULT,SIR FRANK WHITTLE WAY,,DERBY,DE21 4PB,_01332375300,0,0,0,1,0,1
1ALI20,SKODA-VOLVO DERBY,SIR FRANK WHITTLE ROAD,,,DERBY,DE21 4PB,_01332375300,0,0,0,1,0,0
1ALI19,BRISTOL STREET MOTORS DERBY,NISSAN GARAGE,SIR FRANK WHITTLE ROAD,,DERBY,DE21 4PB,_01332375300,0,0,0,1,0,0
1661BB,CLIFMERE 2003 LIMITED,ELTON ROAD,,,DERBY,DE24 8EQ,_01332345138,1,1,0,1,1,1
8950AN,BAKEWELL MOT CENTRE LIMITED,STATION YARD,,,BAKEWELL,DE4 1GE,_01629815321,1,1,1,1,1,1
V110336,TWO DALES GARAGE,UNIT 2 LADYGROVE MILL,TWO DALES,,MATLOCK,DE4 2FH,_01629 258250,0,0,0,1,0,1
37003,HIGH STREET AUTO CENTRE LTD,HIGH STREET,TIBSHELF,,ALFRETON,DE5 5NU,_01773875015,0,0,0,1,0,0
3763B1,DOVE'S GARAGES LTD,HIGH STREET,MELBOURNE,,DERBYSHIRE,DE73 1GJ,_01332862123,0,0,0,1,0,0
1ALP93,ARNOLD CLARK,MAIN ROAD,LOCHARBRIGGS,,DUMFRIES,DG1 1SB,_01387711550,0,0,0,1,0,0
1ALA02,DOWNSWAY GARAGE,DOWNSWAY INDUSTRIAL ESTATE,TINWALD DOWNS ROAD,HEATHHALL,DUMFRIES,DG1 3QL,_01387266000,0,0,0,1,0,0
S000797,KWIK FIT,UNIT 1,ST ANDREWS TRADE PARK,,DURHAM,DH1 2QX,_01913869088,0,0,0,1,1,1
1ALA71,DURHAM TYRE CENTRE,DRAGONVILLE INDUSTRIAL ESTATE,RENNYS LANE,,DURHAM,DH1 2RQ,_01913860295,0,0,0,1,0,0
V105627,STRATSTONE JAGUAR HOUGHTON LE SPRING,STONEY GATE,,,HOUGHTON LE SPRING,DH4 4NJ,_0191 5123500,0,0,0,1,0,0
28649,COATES GARAGE,SCORTON,,,RICHMOND,DL10 6AF,_01748811349,0,0,0,1,0,0
0805B3,A E ALDERSON GARAGE SERVICES,NEWGATE GARAGE,,,BARNARD CASTLE,DL12 8NH,_01833638504,0,0,0,1,1,1
V103474,BODYWORK DIRECT LTD,BEECHBURN INDUSTRIAL ESTATE,PROSPECT ROAD,,CROOK,DL15 8JN,_01388 762828,0,0,0,1,0,0
3489A6,SLAKE TERRACE GARAGE,SLAKE TERRACE,WEST CORNFORTH,,SPENNYMOOR,DL17 9JD,_01740654761,0,0,0,1,0,0
1ALX63,BURTREE AUTO REPAIR CENTRE LTD,UTILITIES HOUSE,WHESSOE ROAD,,DARLINGTON,DL3 0XJ,_01325381275,0,0,0,1,1,1
1ALE58,THE TICKHILL TEST CENTRE,APY HILL LANE,TICKHILL,,DONCASTER,DN11 9PD,_01302759797,0,0,0,1,0,0
V101822,KWIK - FIT,142 - 148 BOOTHFERRY ROAD,,,GOOLE,DN14 6AF,_01405780260,0,0,0,1,0,0
V109857,R A FORRESTER SERVICE CENTRE,JENNIFER WORKS,PRIMROSE STREET,,GAINSBOROUGH,DN21 1HU,_01427 810300,0,0,0,1,0,1
7951AK,NATIONAL TYRES & AUTOCARE,337/359 CLEETHORPE ROAD,,,GRIMSBY,DN31 3AB,_01472353076,0,0,0,1,0,0
58928,IMMINGHAM MOTORS,PO BOX 35,STALLINGBOROUGH,,IMMINGHAM,DN40 1PS,_01469573677,0,0,0,1,0,0
5423BF,SYD PLUMB MOT LIMITED,GREEN LANE,SCAWTHORPE,,DONCASTER,DN5 7UU,_01302729398,0,0,0,1,0,0
1591BJ,SCAWSBY MOT CENTRE,BARNSLEY ROAD,SCAWSBY,,DONCASTER,DN5 8RF,_01302 786853,0,0,0,1,0,0
8249BC,DUDLEY MOTOR COMPANY,TRINDLE ROAD,,,DUDLEY,DY2 7AY,_01384 454100,0,0,0,1,1,1
55040,R S MOTORS,UNIT 4B CONEYGRE INDUSTRIAL ESTATE,BIRMINGHAM NEW ROAD,,TIPTON,DY4 8XT,_01215207685,0,0,0,1,0,1
55201,MARTIN AND GRIFFITHS (KINGSWINFORD) LTD,BUILDING 22,UNIT 9 FIRST AVENUE,PENSNETT TRADING ESTATE,KINGSWINFORD,DY6 7PP,_01384 294808,0,0,0,1,0,0
54843,SMITHS OF LYE GARAGES,ENGINE LANE,LYE,,STOURBRIDGE,DY9 7AL,_01384 422025,0,0,0,1,0,0
V100448,KINGS FLEET AUTO MECHANICAL SERVICE CENTRE,PROVIDENCE STREET,LYE,,STOURBRIDGE,DY9 8HW,_01384 897050,0,0,0,1,0,0
V108541,R S AUTOS,UNIT 10A GLOBE WORKS,STOUR VALE ROAD,LYE,STOURBRIDGE,DY9 8QB,_07540 155277,0,0,0,1,0,1
23960,AUTOGOLD SERVICES LTD,200 BARNARDO STREET,COMMERCIAL ROAD,,LONDON,E1 9HD,_02077900085,0,0,0,1,0,0
1ALU80,KWIK FIT,225 - 227 LEA BRIDGE ROAD,LEYTON,,LONDON,E10 7NA,_02085391137,0,0,0,1,0,0
8080BV,LONDON BOROUGH OF TOWER HAMLETS,TRANSPORT SERVICES UNIT,1 SILVOCEA WAY,BLACKWALL,LONDON,E14 0JJ,_0207 364 1069,0,0,0,1,0,1
8644BH,SAM WOOD MOT,376-377 BLOUNT STREET,STEPNEY,,LONDON,E14 7RN,_02077901020,0,0,0,1,0,0
V104831,MB STRATFORD,UNIT 4,RICK ROBERTS WAY,,STRATFORD,E15 2NG,_07768835496,0,0,0,1,1,1
8684B0,BEDEVINOS MOT,181-184 BURDETT ROAD,,,LONDON,E3 4JP,_02089801917,0,0,0,1,0,0
7485AJ,HOPE GARAGE,ARCH 442,BEHIND HACKNEY DOWN RAILWAY,DALSTON LANE,LONDON,E8 1LZ,_02089855776,0,0,0,1,0,0
2556BP,WEST END GARAGE,4 CULTINS ROAD,WEST WAY PARK,,EDINBURGH,EH11 4DR,_01314532244,0,0,0,1,0,0
V106631,JEMCA TOYOTA ENFIELD,LUMINAR PARK,GREAT CAMBRIDGE ROAD,,ENFIELD,EN1 1FB,_02083630146,0,0,0,1,0,0
19165,BT FLEET LTD,277 LINCOLN ROAD,,,ENFIELD,EN1 1ST,_02088052804,0,0,0,1,0,1
1AMB45,FORMULA ONE AUTOCENTRES LTD,340 SOUTHBURY ROAD,,,ENFIELD,EN1 1TF,_02083647333,0,0,0,1,0,0
V100255,BRAYLEY HONDA ENFIELD,660 GREAT CAMBRIDGE ROAD,,,ENFIELD,EN1 3RS,_020 83638000,0,0,0,1,0,0
V100588,JTT AUTOTECH LTD,HOLLIES WAY INDUSTRIAL PARK,218 HIGH STREET,,POTTERS BAR,EN6 5BJ,_01707 658899,0,0,0,1,0,0
19023,MR UNIQUE LTD,132 TURNERS HILL,,,CHESHUNT,EN8 9BP,_01992640404,0,0,0,1,0,0
6059BY,FAST FIT TYRE & EXHAUST SYSTEM LTD,STUDIO HOUSE,DELAMERE ROAD,,CHESHUNT,EN8 9TD,_01992641272,0,0,0,1,0,0
V105651,SIDMOUTH GARAGE LTD,VICARAGE ROAD,,,SIDMOUTH,EX10 8TR,_01395 516660,0,0,0,1,0,0
1AMD80,MATFORD LANDROVER,WATERBRIDGE COURT,MATFORD PARK ROAD,,EXETER,EX2 8EL,_01392 201040,0,0,0,1,0,0
1699BA,HALFORDS AUTOCENTRE,16 MARSH BARTON ROAD,MARSH BARTON TRADING ESTATE,,EXETER,EX2 8NX,_01392491601,0,0,0,1,0,1
5169B1,SHB HIRE LTD,GRACE ROAD,MARSH BARTON TRADING ESTATE,,EXETER,EX2 8QB,_01392 499422,0,0,0,1,1,1
V105045,JC AUTOS GARAGE & RECOVERY LTD,UNIT 1,8 CHRISTOW ROAD,MARSH BARTON,EXETER,EX2 8QU,_01392 499555,0,0,0,1,1,1
V103366,HENDY CAR SUPERMARKET,UNIT 3,8 CHRISTOW ROAD,MARSH BARTON TRADING ESTATE,EXETER,EX2 8QU,_01392 954102,0,0,0,1,0,0
77171,PASSION 4 CARS,KINGSLEY ROAD,,,BIDEFORD,EX39 2PJ,_01237 423301,0,0,0,1,0,0
4093BH,PDQ,UNIT 5,107 SUMMERWAY,WHIPTON,EXETER,EX4 8DR,_01392460777,0,0,0,1,0,0
S001018,BROOMHILL GARAGE,33 BROOMHILL ROAD,BONNYBRIDGE,,FALKIRK,FK4 2AL,_01324819800,0,0,0,1,0,1
2977AF,ARNOLD CLARK,117 TO 125 GLASGOW ROAD,,,STIRLING,FK7 0PG,_01786811234,0,0,0,1,0,0
7822B7,PARKS OF HAMILTON (TOWNHEAD GARAGE) LTD,RAPID FIT,6 KERSE ROAD,,STIRLING,FK7 3RW,_01786445445,0,0,0,1,1,1
V104417,KAYS GARAGE,UNIT 16,ANNIESLAND BUSINESS PARK,NETHERTON ROAD,GLASGOW,G13 1AY,_0141 954 6001,0,0,0,1,0,0
95857,PROLEK AUTO ELECTRICAL SERVICES LTD,198 PETERSHILL ROAD,,,GLASGOW,G21 4AP,_01415580302,0,0,0,1,0,0
6381AZ,SARACEN AUTOS,102 DENMARK STREET,POSSILPARK,,GLASGOW,G22 2NX,_01413362666,0,0,0,1,0,0
8015BF,ATS EUROMASTER LIMITED,1 SAWMILLFIELD STREET,,,GLASGOW,G4 9JJ,_01413321945,0,0,0,1,0,0
95661,Galvin Garages,90 TOBAGO STREET,,,GLASGOW,G40 2RP,_01415561593,0,0,0,1,0,0
S001820,ARNOLD CLARK,274-304 SHIELDS ROAD,,,GLASGOW,G41 1LA,_0141 278 6884,0,0,0,1,0,0
V102233,SHAH JI'S LAHORE AUTOS,56 HAMILTON STREET,POLMADIE,,GLASGOW,G42 0XX,_0141 423 5565,0,0,0,1,1,1
95337,JR & M MOTOR ENGINEERS LTD,103 INGLEFIELD STREET,GOVANHILL,,GLASGOW,G42 7PT,_01414243895,0,0,0,1,0,0
1AKU58,JOHN C MILLAR MOTOR ENGINEERS,UNIT 4C BURNFIELD AVENUE,BURNFIELD ROAD,GIFFNOCK,GLASGOW,G46 7TP,_01416378822,0,0,0,1,0,0
S000019,ARNOLD CLARK,464 HILLINGTON ROAD,HILLINGTON INDUSTRIAL ESTATE,,GLASGOW,G52 4XY,_01418102600,0,0,0,1,0,0
V110088,NATIONAL TYRES AND AUTOCARE,79 MILNGAVIE ROAD,BEARSDEN,,GLASGOW,G61 2DL,_01419421850,0,0,0,1,0,0
7929B0,ARNOLD CLARK,29 DALMARNOCK ROAD,RUTHERGLEN,,GLASGOW,G73 1BL,_01416470511,0,0,0,1,0,0
6995A4,NATIONAL TYRES & AUTOCARE,WEST MAINS,THE VILLAGE,,EAST KILBRIDE,G74 1NH,_01355248116,0,0,0,1,0,0
1AMB51,ARNOLD CLARK,7 HAWBANK ROAD,,,EAST KILBRIDE,G74 5ES,_01355200660,0,0,0,1,0,0
9348BL,ARNOLD CLARK,DUMBARTON ROAD,MILTON,,DUMBARTON,G82 2TY,_01389765131,0,0,0,1,0,0
1537BC,MALVERN TYRES,PRIORY ROAD,,,GLOUCESTER,GL1 2RQ,_01452300066,0,0,0,1,0,0
V104903,ATS EUROMASTER LIMITED,ATS EUROMASTER LIMITED,ST OSWALDS ROAD,,GLOUCESTER,GL1 2SY,_01452 527329,0,0,0,1,0,0
81929,KWIK FIT,11A BRISTOL ROAD,,,GLOUCESTER,GL1 5BE,_01452529869,0,0,0,1,0,0
1720AZ,TW AUTO SERVICES (GLOS) LIMITED,UNIT 3,321 BRISTOL ROAD,,GLOUCESTER,GL2 6DN,_01452311444,0,0,0,1,0,0
1892B3,JEREMY ROBERT TIMMS,UNIT 2F,SPINNAKER PARK,HEMPSTED LANE,GLOUCESTER,GL2 6HS,_01452307241,1,1,0,1,0,1
1175A0,I. STOJANOV & SONS LIMITED (CLEARWATER CARS),329 BRISTOL ROAD,,,GLOUCESTER,GL2 6QP,_01452305353,0,0,0,1,0,0
6759AU,123 CAR COMMERCIAL LTD,UNIT 2,CHASE LANE,EASTERN AVENUE,GLOUCESTER,GL4 6PF,_01452306306,0,0,0,1,0,1
V107959,BAYLIS HAINES & STRANGE,GLOUCESTER ROAD,STRATTON,,CIRENCESTER,GL7 2JX,_01285653314,0,0,0,1,0,0
1ALF25,BISHOPS FIAT,29 MOORFIELD ROAD,SLYFIELD INDUSTRIAL ESTATE,,GUILDFORD,GU1 1BU,_01483 617382,0,0,0,1,0,1
16646,FG BARNES AND SONS LIMITED,SLYFIELD GREEN,INDUSTRIAL ESTATE,WOKING ROAD,GUILDFORD,GU1 1RT,_01483 885885,0,0,0,1,0,0
V109733,RICHMOND CARS (GUILDFORD) LIMITED,25-27 MOORFIELD ROAD,SLYFIELD INDUSTRIAL ESTATE,,GUILDFORD,GU1 1RY,_01483 345470,0,0,0,1,1,1
S001962,LOOKERS AUDI FARNBOROUGH,TEMPLAR AVENUE,FARNBOROUGH BUSINESS PARK,,FARNBOROUGH,GU14 6FB,_07714 657369,0,0,0,1,0,0
V109603,FORMULA ONE AUTOCENTRES,UNIT 1A,HAWLEY TRADING CENTRE,HAWLERY LANE,FARNBOROUGH,GU14 8GH,_01252 377737,0,0,0,1,0,0
V103431,KWIK-FIT,79 - 87 GOLDSWORTH ROAD,,,WOKING,GU21 1LJ,_01483767979,0,0,0,1,0,0
86037,PETERSFIELD GARAGE SERVICES,VAUXHALL WAY,BEDFORD ROAD,,PETERSFIELD,GU32 3DF,_01730266911,0,0,0,1,1,1
1ALF71,CROOKHAM SERVICE GARAGE,100 ALDERSHOT ROAD,CHURCH CROOKHAM,,FLEET,GU52 8JR,_01252614010,0,0,0,1,0,0
19260,WEMBLEY MOTORS,260 ABBEYDALE ROAD,ALPERTON,,WEMBLEY,HA0 1QA,_020 8998 5970,1,1,0,1,0,0
V103102,SAFE AUTOS LIMITED,UNIT 7C ABBEY ESTATE,MOUNT PLEASANT,,ALPERTON,HA0 1RS,_020 87951524,0,0,0,1,0,0
3516BD,GANESH MOTORS,UNIT 28,ABBEY MANUFACTURING ESTATE,WOODSIDE END,WEMBLEY,HA0 1XE,_02087951819,0,0,0,1,0,0
V104092,J JUCHAU & SONS,THE RAILWAY YARD,THE ARCHES,,SOUTH HARROW,HA2 8BD,_020 8422 4083,0,0,0,1,1,1
V104513,WEST LONDON MOTOR GROUP,15 STONEFIELD CLOSE,STONEFIELD INDUSTRIAL ESTATE,,RUISLIP,HA4 0JX,_020 8842 1461,0,0,0,1,0,0
8024BG,CAR CHECK CENTRE LTD,UNIT 17,STONEFIELD CLOSE,OFF STONEFIELD WAY,SOUTH RUISLIP,HA4 0JX,_02088411880,0,0,0,1,0,0
3135B2,MOTORPOINT (HENDON) LTD,UNIT 3,62 LOWTHER ROAD,,STANMORE,HA7 1QJ,_02082040149,0,0,0,1,0,0
9092B7,ROBINS & DAY EDGWARE,360/366 BURNT OAK BROADWAY,EDGWARE,,LONDON,HA8 5AE,_02087311000,0,0,0,1,1,1
7092BZ,GARRETT MOTORS LIMITED,SECOND WAY,WEMBLEY INDUSTRIAL ESTATE,,WEMBLEY,HA9 0YU,_02089022520,0,0,0,1,1,1
S001270,KWIK FIT,FORTY LANE,,,WEMBLEY,HA9 9AE,_02089045252,0,0,0,1,0,0
7006B8,ARNOLD CLARK,386 LEEDS ROAD,,,HUDDERSFIELD,HD2 1XS,_01484 441065,0,0,0,1,0,0
9195BM,RRG HUDDERSFIELD,LEEDS ROAD,,,HUDDERSFIELD,HD2 1YP,_01484514514,0,0,0,1,0,0
8267BE,EVANS HALSHAW HYUNDAI HARROGATE,WETHERBY ROAD,,,HARROGATE,HG3 1RR,_01423818100,0,0,0,1,0,0
V103776,STRATSTONE MINI HARROGATE,HARROGATE BUSINESS PARK,WETHERBY ROAD,,HARROGATE,HG3 1RR,_01423 855515,0,0,0,1,0,0
1AKZ05,LLOYD MOTORS LTD,HUTTON BANK,,,RIPON,HG4 5PT,_01765646464,0,0,0,1,1,1
58306,PERRYS MOTOR SALES LIMITED,GRIFFIN LANE,,,AYLESBURY,HP19 3BY,_01296426162,0,0,0,1,0,0
4393BZ,DRIVE IN,UNIT 4 INSIGNIA IND ESTATE,PRINTERS END,GATEHOUSE WAY,AYLESBURY,HP19 3DB,_01296397313,0,0,0,1,0,1
7749AW,V P AUTOSERVICES,559 LONDON ROAD,BOXMOOR,,HEMEL HEMPSTEAD,HP2 2RE,_01442268163,0,0,0,1,0,0
7719BK,KWIK FIT,BLUE SCHOOL STREET,,,HEREFORD,HR1 2AS,_01432276648,0,0,0,1,0,0
5497BJ,HEREFORD TRUCK & BUS CARE LTD,UNIT 3,PERSEVERANCE ROAD,,HEREFORD,HR4 9SD,_01432 342679,0,0,0,1,1,1
1275A5,HULL CITY MOTOR COMPANY,661 ANLABY ROAD,,,HULL,HU3 6YL,_01482565788,0,0,0,1,0,0
1AKW43,EVANS HALSHAW VAUXHALL HULL WEST,THE VAUXHALL GARAGE,PRIORY PARK,,HULL,HU4 7BD,_01482357357,0,0,0,1,0,0
1AKW42,EVANS HALSHAW (CITROEN HULL),THE CITROEN GARAGE,PRIORY PARK,,HULL,HU4 7BD,_01482357100,0,0,0,1,0,0
36330,KTR GARAGE,1 AMSTERDAM ROAD,SUTTON FIELDS IND EST,,HULL,HU7 0XE,_01482825840,0,0,0,1,0,0
1620AU,MOTOR DEPOT LIMITED,CLARENCE STREET,,,HULL,HU9 1DW,_01482585058,0,0,0,1,0,0
6775AP,DECIDEBLOOM LIMITED T/A STONEACRE SUZUKI,CLARENCE STREET,,,HULL,HU9 1DW,_01482589646,0,0,0,1,0,0
2680BN,SUREFIX MOTORING CENTRE,PORTLAND PLACE,HUDDERSFIELD ROAD,,HALIFAX,HX1 2JG,_01422359447,0,0,0,1,0,0
V106365,HOPWOOD LANE MOT CENTRE,CULVER WORKS,,,HALIFAX,HX1 5EZ,_01422 383455,0,0,0,1,0,0
S001179,BUTT MOT STATION,UNIT A HOPWOOD LANE,,,HALIFAX,HX1 5JH,_01422 350260,0,0,0,1,0,0
1ALG65,SOWERBY BRIDGE CAR CLINIC,BEAVER LODGE,WEST STREET,SOWERBY BRIDGE,HALIFAX,HX6 3AL,_01422832077,0,0,0,1,0,0
S001365,SYTNER CHIGWELL,LANGSTON ROAD,,,LOUGHTON,IG10 3TH,_020 8418 7600,0,0,0,1,0,0
V103294,KWIK - FIT,RIPPLE ROAD,,,BARKING,IG11 0SZ,_02085947719,0,0,0,1,0,0
V105918,GRANGE WOODFORD,1-5 ROEBUCK ROAD,,,ILFORD,IG6 3TT,_0208 5016544,0,0,0,1,0,0
1ALR56,SUNNYMEDE OF CHIGWELL LTD,UNIT 2B,2-6 FOWLER ROAD,,HAINAULT,IG6 3UP,_0208 500 2813,0,0,0,1,1,1
V107646,MOTOWORKS IPSWICH,7A STOKE HALL ROAD,,,IPSWICH,IP2 8EL,_07872951618,1,1,0,0,0,0
V104893,IMPERIAL CARS OF SWANWICK LIMITED,2 BATH STREET,,,IPSWICH,IP2 8SG,_01473 877370,0,0,0,1,0,0
1ALN36,THREEWAYS GARAGE,WATTON ROAD,SHIPDHAM,,THETFORD,IP25 7PE,_01362820430,0,0,0,1,0,0
S001466,Evans Halshaw Car Store Ipswich,Plot 10,Crane Boulevard,Futura Park,Ipswich,IP3 9QH,_01473 710199,0,0,0,1,0,0
V103386,HAMMOND AUTOSERV LIMITED,2 ALTITUDE BUSINESS PARK,THE DRIFT,NACTON ROAD,IPSWICH,IP3 9QP,_01473 891006,0,0,0,1,0,0
68956,HALFORDS AUTOCENTRE,COTTON LANE,,,BURY ST EDMUNDS,IP33 1XN,_01284752841,0,0,0,1,0,0
69024,TURNERS,TAYFEN ROAD,,,BURY ST EDMUNDS,IP33 6AA,_01284764046,0,0,0,1,0,0
6694BR,Parks of Hamilton (Townhead Garage) Ltd,LAND ROVER CENTRE,61 HARBOUR ROAD,,INVERNESS,IV1 1JX,_01463716716,0,0,0,1,0,0
95924,Parks of Hamilton (Townhead Garage) Ltd,66 HARBOUR ROAD,,,INVERNESS,IV1 1JX,_01463 230430,0,0,0,1,0,1
1ALF40,CARSEGATE MOT TEST CENTRE LTD,CARSEGATE MOT TEST CENTRE,18B CARSEGATE ROAD,,INVERNESS,IV3 6EX,_01463221616,0,0,0,1,1,1
V109204,ATS EUROMASTER LIMITED,MOYCROFT,,,ELGIN,IV30 1XS,_01343 546333,0,0,0,1,0,0
4402B2,WILLIE YOUNG MOTOR CYCLE SALES,4 PARADE SPUR SOUTH,PINEFIELD INDUSTRIAL ESTATE,,ELGIN,IV30 3AJ,_01343540355,1,1,0,0,0,0
3731BG,ARNOLD CLARK,EDGAR ROAD,,,ELGIN,IV30 3YQ,_01343547688,0,0,0,1,0,0
S000384,WILMAC GARAGE LTD,1A GRESHOP ROAD,GRESHOP INDUSTRIAL ESTATE,,FORRES,IV36 2GV,_01309694838,0,0,0,1,1,1
1613AZ,JOHNSTONE & DRYNAN,1 FULLARTON STREET,,,KILMARNOCK,KA1 2RB,_01563523008,0,0,0,1,0,1
4754A0,GARNOCK MOT CENTRE,UNIT 6,CALEDONIA ROAD,,GLENGARNOCK,KA14 3RB,_01505685590,0,0,0,1,0,0
0519B4,BUDGET TYRE PLUS AUTOSERVICE,38 FORT STREET,,,AYR,KA7 2DE,_01292619332,0,0,0,1,0,0
0026BB,HALFORDS AUTOCENTRE,16-18 PEEBLES STREET,,,AYR,KA8 8DR,_01292281415,0,0,0,1,0,0
96251,ARNOLD CLARK,127 PRESTWICK ROAD,,,AYR,KA8 8ND,_01292269123,0,0,0,1,0,0
V101629,BRIDGEND GARAGE AYR AUTOPLEX,4 LOCHSIDE ROAD,HEATHFIELD,,AYR,KA8 9TA,_01292290902,0,0,0,1,0,1
10449,DRIFT BRIDGE GARAGE LIMITED,SERVICE DEPARTMENT,RUDEN WAY,,EPSOM,KT17 3LR,_01737360111,0,0,0,1,0,0
S000411,TRUST FORD EPSOM,UNIT 2 LONGMEAD INDUSTRIAL ESTATE,BLENHEIM ROAD,,EPSOM,KT19 9NW,_01206 754 600,0,0,0,1,1,1
V110579,STAR-TEC ENGINEERING LIMITED,UNIT 1 DAVIS ROAD,,,CHESSINGTON,KT9 1TU,_020 8397 2666,0,0,0,1,0,1
97063,WILLIAM DUNNET AND CO LTD,MANSONS LANE,,,THURSO,KW14 8EW,_01847893101,0,0,0,1,0,0
9249BJ,FIFE AUTO CENTRE LTD,LYNEBURN INDUSTRIAL ESTATE,HALBEATH PLACE,,DUNFERMLINE,KY11 4LW,_01383626100,0,0,0,1,0,0
V107970,THE DRUM GARAGE,UNIT 18,A1 FULMAR WAY,DONIBRISTLE INDUSTRIAL ESTATE,DALGETY BAY,KY11 9YY,_01383822888,1,1,0,1,0,1
V100305,D AND G AUTOCARE LTD,45 BALDRIDGEBURN,,,DUNFERMLINE,KY12 9EQ,_01383737744,0,0,0,1,0,0
45856,NORTH WEST TRANSMISSIONS LTD,382 STANLEY ROAD,KIRKDALE,,LIVERPOOL,L20 2AG,_01519330257,0,0,0,1,0,0
1ALY05,WILLIAMS LIVERPOOL,1 PALL MALL,,,LIVERPOOL,L3 7TB,_01514742000,0,0,0,1,0,0
V100951,C AND N CAR SERVICES LTD,UNIT 18 THE BOXWORKS,HEYSHAM ROAD,AINTREE,LIVERPOOL,L30 6UA,_0151 5234555,0,0,0,1,0,0
V104127,MOTOR RANGE,1 NORTHWAY,MAGHULL,,LIVERPOOL,L31 5LH,_0151 5273000,0,0,0,1,0,0
2251AV,ATS EUROMASTER LTD,WILSON ROAD,HUYTON,,LIVERPOOL,L36 3AN,_01514898386,0,0,0,1,0,0
44481,MORLAND SERVICE STATION,61 BRECK ROAD,,,LIVERPOOL,L5 4AQ,_0151 2649264,0,0,0,1,0,0
V106442,RECOVERY SERVICES,280-282 COMMERCIAL ROAD,KIRKDALE,,LIVERPOOL,L5 7RQ,_0151 9224088,0,0,0,1,0,0
V101983,LIVERPOOL MOT CENTRE LTD,UNITS 1& 2 GLOUCESTER PLACE,MARVIN STREET INDUSTRIAL ESTATE,,LIVERPOOL,L6 1BZ,_0151 2635184,0,0,0,1,1,1
1ALS70,ARNOLD CLARK,67 SEFTON STREET,,,LIVERPOOL,L8 6PY,_01517037880,0,0,0,1,0,1
5037BB,KWIK FIT,RICE LANE,WALTON VALE,,LIVERPOOL,L9 2BN,_01515215550,0,0,0,1,0,0
29257,LAKELAND LAND ROVER,GREENODD,,,ULVERSTON,LA12 7RE,_01229 861434,0,0,0,1,0,0
45516,REGAL MOT CENTRE LTD,HINDPOOL ROAD,,,BARROW IN FURNESS,LA14 2LZ,_01229832006,0,0,0,1,0,0
V105422,D A VAUGHAN,UNIT 4,KNIGHTON ENTERPRISE PARK,LUDLOW ROAD,KNIGHTON,LD07 1HJ,_01547 520065,0,0,1,1,0,1
2301BF,TANVIC TYRE AND SERVICE CENTRE,37 DERBY ROAD,,,LOUGHBOROUGH,LE11 0AD,_01509610500,0,0,0,1,0,1
64680,HALFORDS AUTOCENTRE,WILLOWBROOK PARK,DERBY ROAD,,LOUGHBOROUGH,LE11 0HE,_01509210304,0,0,0,1,0,0
V109511,LOUGHBOROUGH MOT & SERVICE CENTRE LIMITED,34A - 36 MOIRA STREET,,,LOUGHBOROUGH,LE11 2AL,_01509 213838,0,0,0,1,1,1
1260BR,R & G AUTOMOTIVES LTD,UNIT 7A WOODHILL IND EST,STATION ROAD,OLD DALBY,MELTON MOWBRAY,LE13 3LX,_01664823831,0,0,0,1,0,0
V109356,J COATES GARAGE SERVICES LTD,UNIT 2,SHAWELL DEPOT,WATLING STREET,LUTTERWORTH,LE17 6AS,_01788 860845,0,0,0,1,1,1
8953B0,WYVERN GARAGE,5-9 FAIRFAX ROAD,,,LEICESTER,LE4 7EH,_01162767246,0,0,0,1,0,0
7371A1,Brookside Garage,UNIT 5,BROOKSIDE INDUSTRIAL ESTATE,IBSTOCK,LEICESTER,LE67 1LR,_01530261498,0,0,0,1,0,0
64639,CAMBRIDGE ROAD GARAGE LIMITED,42 CAMBRIDGE ROAD,COSBY,,LEICESTER,LE9 5SH,_0116 275 0056,0,0,0,1,0,0
S001740,WREXHAM SERVICE CENTRE,THE GRANGE,UNITS 1 - 5 RHOSDDU INDUSTRIAL ESTATE,RHOSDDU,WREXHAM,LL11 4YY,_01978 313900,0,0,0,1,0,1
V109410,NORTH WALES VOLKSWAGEN,THE POINT,CONWAY ROAD,LLANDUDNO JUNCTION,LLANDUDNO,LL31 5ET,_01492 585700,0,0,0,1,0,1
V102097,THE MOT CENTRE (LLANDUDNO JUNCTION) LTD,CONWY ROAD,LLANDUDNO JUNCTION,,CONWY,LL31 9NZ,_01492 593725,0,0,0,1,1,1
5839BL,B & K WILLIAMS LTD,SOUTH ROAD,,,CAERNARFON,LL55 2HG,_01286675557,0,0,0,1,0,0
6938BV,ATS EUROMASTER LIMITED,CAERNARFON ROAD,,,BANGOR,LL57 1XX,_01248361111,0,0,0,1,0,0
S001620,CHRIS FAIRBURN MOT CENTRE,Units 1 & 2,67 Bolingbroke Road,Fairfield Ind Estate,Louth Lincolnshire,LN11 OWA,_01507 602608,1,1,0,1,0,1
V101169,VERTU VOLKSWAGEN LINCOLN,OUTER CIRCLE ROAD,,,LINCOLN,LN2 4HW,_01522 545900,0,0,0,1,0,0
1150AE,LINCOLN MOT CENTRE,OUTER CIRCLE ROAD,,,LINCOLN,LN2 4HW,_01522527342,0,0,0,1,1,1
S001499,Troops,Lincoln Road,Leadenham,,Nr Lincoln,LN5 OPQ,_01400 272232,0,0,0,1,0,1
9573AR,HALFORDS AUTOCENTRE,3 LOW ROAD,HUNSLET,,LEEDS,LS10 1QZ,_01132765190,0,0,0,1,0,0
8584AT,LUSCOMBE MOTORS LIMITED,LOW ROAD,HUNSLET,,LEEDS,LS10 1RB,_01132712288,0,0,0,1,0,0
8768B5,AUTOMO-BEALES,UNIT 1 CAD 1,TEMPLE CRESCENT,BEESTON,LEEDS,LS11 8BQ,_01132712131,0,0,0,1,0,0
S000870,BROOKLANDS MOTOR CENTRES,UNIT 5,162 ARMLEY ROAD,,LEEDS,LS12 2TY,_0113 203 8585,0,0,0,1,0,0
V108385,GLOBAL AUTOCARE LIMITED,GELDERD ONE,GELDERD ROAD,,LEEDS,LS12 6NB,_0113 391 8040,0,0,0,1,1,1
V102476,PORSCHE CENTRE LEEDS,THE BOULEVARD,CITY ONE WEST PARK,,LEEDS,LS12 6SN,_0113 3890600,0,0,0,1,0,0
37994,WAUDBYS OF WETHERBY LIMITED,MOT TESTING STATION,SANDBECK INDUSTRIAL ESTATE,SANDBECK WAY,WETHERBY,LS22 4DN,_01937 581660,0,0,0,1,0,0
V108785,BRUNTCLIFFE MOT CENTRE,BRUNTCLIFFE ROAD,MORLEY,,LEEDS,LS27 0LF,_01132537889,0,0,0,1,1,1
4927A7,AUTO TECH,TOWN END WORKS,WIDE LANE,MORLEY,LEEDS,LS27 8XX,_07903778866,0,0,0,1,0,0
32735,JCT600 LIMITED PEUGEOT AND SEAT,46 BRADFORD ROAD,MENSTON,,ILKLEY,LS29 6DE,_01943882200,0,0,0,1,0,0
V108183,M AND M FITZGERALD,UNIT 5A,HUDSON ROAD,BURMANTOFTS,LEEDS,LS9 7DF,_0113 249 0379,0,0,0,1,0,0
V105033,BURR STREET MOT CENTRE LTD,12 BURR STREET (UPPER YARD),,,LUTON,LU2 0HJ,_01582 417766,0,0,0,1,1,1
5755BB,SPECIALIST CARS LUTON,501 DUNSTABLE ROAD,,,LUTON,LU4 8PW,_01582590700,0,0,0,1,0,0
3745AX,THE MOT CENTRE LTD,TRANSIT HOUSE,EASTERN AVENUE,,DUNSTABLE,LU5 4LH,_01582477300,0,0,0,1,0,1
9023BK,CEDRIC MOTORS,1 - 5  GREENHEYS LANE,HULME,,MANCHESTER,M15 2AA,_01612262797,0,0,0,1,0,0
3561BJ,AUTO REPAIR CENTRE,4 QUEEN STREET WEST,WITHINGTON,,MANCHESTER,M20 9BQ,_01614344392,0,0,0,1,0,0
44308,PARKHILLS CAR CENTRE,STAND LANE,RADCLIFFE,,MANCHESTER,M26 9LS,_0161 723 2124,0,0,0,1,0,0
9366AL,DSP AUTOBODY SERVICES,BRIDGE STREET,SWINTON,,MANCHESTER,M27 1FJ,_01617936876,0,0,0,1,0,0
45629,HALFORDS AUTOCENTRE,212 WORSLEY ROAD,SWINTON,,MANCHESTER,M27 1SN,_01617278394,0,0,0,1,0,0
44839,FORMULA ONE AUTOCENTRES LIMITED,BOLTON ROAD,PENDLEBURY,,MANCHESTER,M27 2TU,_01617940659,0,0,0,1,0,0
7701AT,SWINTON MOT CENTRE,78 BOLTON ROAD,PENDLEBURY,,MANCHESTER,M27 2XA,_01617366649,0,0,0,1,0,0
7942BL,THE BIKERS WAREHOUSE,THE BIKERS WAREHOUSE,GROUND FLOOR GRECIAN MILL,WORSLEY ROAD NORTH,MANCHESTER,M28 5QW,_01204862832,1,1,0,0,0,0
2787A9,FORMULA ONE AUTOCENTRES LIMITED,WORSLEY ROAD NORTH,WALKDEN,WORSLEY,MANCHESTER,M28 5QW,_01204578245,0,0,0,1,0,0
0316AL,NATIONAL TYRES & AUTOCARE,40 GLOUCESTER ROAD,URMSTON,,MANCHESTER,M31 1AE,_01617482084,0,0,0,1,0,0
8650B9,MANCHESTER HONDA,776 CHESTER ROAD,STRETFORD,,MANCHESTER,M32 0QH,_01618662211,0,0,0,1,0,0
6501BC,KWIK FIT,119 CROSS STREET,,,SALE,M33 1JN,_01619699655,0,0,0,1,0,0
45672,NATIONAL TYRES & AUTOCARE,75 WASHWAY ROAD,SALE,,MANCHESTER,M33 1SS,_01619051500,0,0,0,1,0,0
45229,CHURCH LANE GARAGE,38-39 GOULD STREET,COLLYHURST,,MANCHESTER,M4 4DZ,_01618346395,0,0,0,1,0,0
1ALU78,AUTOMATE,UNIT ONE,CHARLES STREET,DROYLSDEN,MANCHESTER,M43 6HD,_01613710181,0,0,0,1,1,1
44176,CITY OF SALFORD VEHICLE MANAGEMENT SERVICES,TURNPIKE HOUSE,631 ECCLES NEW ROAD,,SALFORD,M5 2SH,_01619251042,0,0,0,1,1,1
45268,ELECTRO MECHANICAL SERVICES,GREAT CHEETHAM STREET WEST,SALFORD,,MANCHESTER,M7 9DN,_01617922824,0,0,0,1,0,0
45462,GROVE STREET TEST CENTRE,2 GROVE STREET,SALFORD,,MANCHESTER,M7 9ZN,_01617926293,0,0,0,1,0,0
45251,SEYMOUR MOTOR COMPANY,4 SEYMOUR ROAD,HIGHER CRUMPSALL,,MANCHESTER,M8 6BG,_01617401818,0,0,0,1,0,0
44818,SANDYBANK GARAGE,SANDYBANK ROAD,(REAR OF MILL MODES),CHEETHAM HILL,MANCHESTER,M8 6BW,_01617404045,0,0,0,1,0,0
6575AD,QUEENS GARAGE,209A QUEENS ROAD,,,MANCHESTER,M8 7RB,_01612034186,0,0,0,1,0,0
V100447,DTM MOTORS LTD,FORMER CITY WORKS,ELIZABETH STREET/HERBERT STREET,CHEETHAM HILL,MANCHESTER,M8 8TU,_0161 705 0502,0,0,0,1,0,0
1831B9,JACKSONS MOTORS,UNIT 62 CAMBRIDGE STREET,CAMBRIDGE INDUSTRIAL ESTATE,,SALFORD,M8 9TA,_01618339263,0,0,0,1,0,0
S000101,NORTH MANCHESTER MOT CENTRE,"UNIT 3, SOVEREIGN WORKS",FACTORY LANE,BLACKLEY,MANCHESTER,M9 3AF,_0161 795 8739,0,0,0,1,0,1
V103059,MARINA MOTS,UNIT 1,RUSHENDEN ROAD,QUEENBOROUGH,SHEERNESS,ME11 5WW,_01795 667660,1,1,0,1,0,0
9380BC,B P MOTORS,1 BRYANT ROAD,,,STROOD,ME2 3EG,_01634716654,0,0,0,1,0,0
V104696,BT FLEET AYLESFORD,AYLESFORD MTW,NEW HYTHE BUSINESS PARK,PAPYRUS WAY,LARKFIELD AYLESFORD,ME20 7SX,_01622 717067,0,0,0,1,0,1
S000906,MOTORLINE PEUGEOT,GROSVENOR ROAD,GILLINGHAM BUSINESS PARK,,GILLINGHAM KENT,ME8 OSA,_01634 842231,0,0,0,1,0,1
S002326,IMPERIAL CARS SWANWICK LTD,TICKFORD ROUNDABOUT,LONDON ROAD,,NEWPORT PAGNELL,MK16 0RE,_01908448125,0,0,0,1,0,0
62201,MK T & B CENTRE LIMITED,422 WHADDON WAY,,,BLETCHLEY,MK3 7LA,_01908640264,0,0,0,1,0,0
0283B3,NATIONAL TYRES AND AUTOCARE,6 ASHBURNHAM ROAD,,,BEDFORD,MK40 1DT,_01234 354244,0,0,0,1,0,0
5209AD,WILLIAM RUTTER MOTOR SERVICES,UNIT 2,HAMMOND ROAD,ELMS FARM INDUSTRIAL ESTATE,BEDFORD,MK41 0RJ,_01234217060,0,0,0,1,0,0
V104749,CLASS 4 7 MOT CENTRE,WOLSELEY ROAD,WOBURN ROAD INDUSTRIAL ESTATE,,KEMPSTON,MK42 7LF,_01234 840305,0,0,0,1,1,1
69557,GLYN HOPKIN LTD,UNIT 33,WOBURN ROAD INDUSTRIAL ESTATE,WOBURN ROAD,KEMPSTON,MK42 7QN,_01234856161,0,0,0,1,0,1
9304BW,EXPRESS AUTO REPAIR,2 HAYNES ROAD,,,BEDFORD,MK42 9PE,_01234404041,1,1,0,1,1,1
S001536,ALLANSHAW MOT CENTRE LTD,UNIT 1,BAIRDS CRESCENT,ALLANSHAW INDUSTRIAL ESTATE,HAMILTON,ML3 9FO,_01698 891 059,0,0,0,1,1,1
9503A1,MOTORTUNE SHOTTS,1A GILBURN PLACE,,,SHOTTS,ML7 4ES,_01501822247,1,1,0,1,0,0
V105206,CAMDEN TRANSPORT SERVICES,CAMDEN TRANSPORT SERVICES,7 YORK WAY,CAMDEN,LONDON,N1 0BE,_020 7974 3447/5655,0,0,0,1,1,1
V105610,TL MOTORS,60 CROMWELL ROAD,,,LONDON,N10 2PR,_020 8444 4007,0,0,0,1,1,1
V100108,MYJ MOTORS,686 HIGH ROAD,TOTTENHAM,,LONDON,N17 4AE,_02088088417,1,1,0,1,0,0
1ALA61,autoteks,1A SHAFTESBURY ROAD,EDMONTON,,LONDON,N18 1SS,_02088039122,0,0,0,1,0,1
7678B2,DEMETRIS MOTOR REPAIRS,UNIT 2,22 BULL LANE,EDMONTON,LONDON,N18 1TZ,_02083456718,0,0,0,1,0,1
7212A8,WINNING POST SERVICE STATION,13 BEDFORD ROAD,,,LONDON,N22 2AU,_02083657034,0,0,0,1,0,0
29216,BANK TOP GARAGE,STEPNEY BANK,,,NEWCASTLE UPON TYNE,NE1 2PY,_01912610979,0,0,0,1,0,0
8098BK,NOBLES MOT CENTRE LTD,SUNDERLAND ROAD,FELLING,,GATESHEAD,NE10 2NR,_01914692321,0,0,0,1,0,0
29702,BT FLEET LTD,M T WORKSHOP,TEAM VALLEY TRADING ESTATE,,GATESHEAD,NE11 0PA,_0191 4873180,0,0,0,1,0,1
6119BL,NORTH TYNESIDE COUNCIL,HARVEY COMBE,STATION ROAD,KILLINGWORTH,NEWCASTLE UPON TYNE,NE12 6UB,_0191 6436394,0,0,0,1,1,1
29788,WIDEOPEN TYRES AND EXHAUSTS,GREAT NORTH ROAD,WIDEOPEN,,NEWCASTLE UPON TYNE,NE13 6EQ,_01912367640,0,0,0,1,0,0
29117,DENESIDE SERVICE STATION,BENWELL VILLAGE,,,NEWCASTLE UPON TYNE,NE15 6NX,_01912280050,0,0,0,1,0,0
29658,TYRE CITY,DENTON ROAD,DENTON BURN,,NEWCASTLE UPON TYNE,NE15 7JA,_01912740670,0,0,0,1,0,0
9423A0,STONES AUTO CARE,STELLA FILLING STATION,STELLA ROAD,,BLAYDON ON TYNE,NE21 4JU,_01914142807,0,0,0,1,0,0
V100478,D BELL & SON LIMITED,"UNIT 2K, PART BLOCK 2",ADMIRAL BUSINESS PARK,,CRAMLINGTON,NE23 1JT,_01670 731267,0,0,0,1,1,1
S000626,TYRESPOT LTD,Norham Road,Coast Road,,North Shields,NE29 8LZ,_0191 2449350,0,0,0,1,0,1
S002125,TYRESPOT LTD,SANDY LANE,WIDEOPEN,,GOSFORTH,NE3 5HR,_0191 2364121,0,0,0,1,1,1
29782,HALFORDS AUTOCENTRE,STATION ROAD,MILLBANK INDUSTRIAL ESTATE,,SOUTH SHIELDS,NE33 1ED,_01914271727,0,0,0,1,0,0
V105107,ARNOLD CLARK,PENN STREET,,,NEWCASTLE UPON TYNE,NE4 7BW,_0191 2739161,0,0,0,1,1,1
S001181,SANDYFORD AUTOS,"UNIT 3, GEORGES ROAD",NOBLE STREET INDUSTRIAL ESTATE,SCOTSWOOD ROAD,NEWCASTLE UPON TYNE,NE4 7NR,_0191 2567863,0,0,0,1,0,0
V103124,FENHAM GARAGE SERVICES,37 HADRIAN ROAD,FENHAM,,NEWCASTLE UPON TYNE,NE4 9DZ,_0191 2722322,0,0,0,1,0,0
29667,NATIONAL TYRES & AUTOCARE,46 TO 56 WEST ROAD,,,NEWCASTLE UPON TYNE,NE4 9RD,_01912734503,0,0,0,1,0,0
8554BG,BRISTOL STREET MOTORS,ALEMOUTH ROAD,,,HEXHAM,NE46 3RF,_01434605151,0,0,0,1,0,0
28552,LOWRYS GARAGE,CHURCH STREET,OFF TITAN ROAD,WALKER,NEWCASTLE UPON TYNE,NE6 3NX,_01912369300,0,0,0,1,0,0
27608,BRISTOL STREET MORPETH,COOPIES LANE,COOPIES LANE INDUSTRIAL ESTATE,,MORPETH,NE61 6JW,_01670519611,0,0,0,1,1,1
1AKX47,KWIK FIT,COOPIES HAUGH,COOPIES LANE INDUSTRIAL ESTATE,,MORPETH,NE61 6JW,_01670503405,0,0,0,1,0,0
7705B3,KWIK FIT,MORPETH ROAD,,,ASHINGTON,NE63 8PX,_01670858848,0,0,0,1,0,0
6928BQ,EVANS HALSHAW VAUXHALL GATESHEAD,ST JAMES SQUARE,,,GATESHEAD,NE8 3RQ,_01914778595,0,0,0,1,0,0
63844,ATS EUROMASTER LIMITED,66 CASTLE BOULEVARD,,,NOTTINGHAM,NG7 1GG,_01159476678,0,0,0,1,0,0
V103582,NOTTINGHAM AUDI,ABBEYFIELD ROAD,LENTON LANE INDUSTRIAL ESTATE,,NOTTINGHAM,NG7 2SW,_0115 9882820,0,0,0,1,0,0
V108657,NOTTINGHAM CITY COUNCIL,BUILDING 3 SOUTH,WOOLSTHORPE CLOSE,BILBOROUGH,NOTTINGHAM,NG8 3JP,_0115 8764500/8764501,0,0,0,1,1,1
62427,BRAMCOTE HILLS GARAGE 1981 LIMITED,57 DERBY ROAD,BRAMCOTE,,NOTTINGHAM,NG9 3GX,_01159254206,0,0,0,1,0,0
V101288,TOPSERVE AUTOS LIMITED,UNIT 17A,COUNTY ROAD,BUCKINGHAM ROAD INDUSTRIAL ESTATE,BRACKLEY,NN13 5AN,_01280 704117,0,0,0,1,1,1
69627,PREMIER TEST CENTRE,WELDON ROAD,,,CORBY,NN17 1UE,_01536 200427,0,0,0,1,0,0
V107965,HENRY MOTORS LTD,UNIT 1,RANSOME ROAD,,NORTHAMPTON,NN4 8AD,_01604 709111,0,0,0,1,0,0
7663AE,BRIAN BRADSHAW MOTOR ENGINEERS LIMITED,UNIT 4,SOUTHFIELD AVENUE,FAR COTTON,NORTHAMPTON,NN4 9AQ,_01604702991,1,1,0,1,0,0
5550BP,MOTORVATION,ROTHERSTHORPE ROAD,,,NORTHAMPTON,NN4 9HZ,_01604765007,1,1,1,1,0,0
V102971,ABERTILLERY MOT CENTRE,BRIDGE STREET,,,ABERTILLERY,NP13 1VE,_01495 212398,0,0,0,1,0,1
5627B0,FLYOVER GARAGE,RIVER ROAD,ABERBEEG,,ABERTILLERY,NP13 2BH,_01495 214383,0,0,0,1,0,0
9047B2,WESSEX GARAGES NEWPORT,SEVEN STILES AVE,NEWPORT RETAIL PARK,,NEWPORT,NP19 4PR,_01633636100,0,0,0,1,0,1
1ALC70,ROBINS & DAY NEWPORT,NEWPORT RETAIL PARK,SPYTTY ROAD,,NEWPORT,NP19 4QS,_01633637573,0,0,0,1,0,0
V103761,EVANS HALSHAW VAUXHALL NEWPORT,SPYTTY ROAD,,,NEWPORT,NP19 4QT,_01633 273414,0,0,0,1,0,0
V101089,LTS AUTOCENTRE,OLD BREWERY LANE,RHYMNEY,,TREDEGAR,NP22 5LT,_01685 842255,0,0,0,1,0,0
1ALA20,SEVERNSIDE MOTORCYCLES,UNIT 5,PILL FARM IND EST,,CALDICOT,NP26 4JH,_01291422974,1,1,0,0,0,0
1AKU11,MOTOR TORQUE,UNIT 3,CASTLE WAY,SEVERN BRIDGE IND EST,CALDICOT,NP26 4TH,_01291422094,0,0,0,1,0,1
76650,ATS EUROMASTER  LTD,2 SEVERN BRIDGE IND EST,,,CALDICOT,NP26 4TH,_01291420243,0,0,0,1,0,0
1ALW27,L VINALL MOTOR ENGINEER,UNIT 15,DAMGATE INDUSTRIAL ESTATE,"DAMGATE LANE, ACLE",NORWICH,NR13 8SX,_07879628677,0,0,0,1,0,0
69057,HIGHFIELD GARAGE,HIGHFIELD GARAGE,NORWICH RD,SWARDESTON,NORWICH,NR14 8DW,_01508570342,0,0,0,1,0,0
7831B8,KWIK - FIT,YAXHAM RD,,,DEREHAM,NR19 1HE,_01362693364,0,0,0,1,0,0
V106123,Robinsons Autostar Limited,43-47 BARKER STREET,CITY TRADING ESTATE,,NORWICH,NR2 4UR,_01603 751000,0,0,0,1,0,0
5192AP,BLAKENEY GARAGE LTD,4 MORSTON ROAD,BLAKENEY,,NORFOLK,NR27 7AY,_01263741456,0,0,0,1,0,0
4237BF,DRD MOTORCYCLES,BACTON ROAD,,,NORTH WALSHAM,NR28 9DP,_01692402688,1,1,0,0,0,0
69527,DUFF MORGAN & VERMONT  LTD,DUFF MORGAN,34/38 WHIFFLER ROAD,,NORWICH,NR3 2AN,_01603425055,0,0,0,1,0,0
1ALC39,EASTERN CAR & COMMERCIALS,WHIPSTOCK HOUSE,SOUTHGATES ROAD,,GREAT YARMOUTH,NR30 3LB,_01493332013,0,0,1,1,1,1
8101B4,HUNTERS LAND ROVER,LAND ROVER HOUSE,CROMER ROAD,,NORWICH,NR6 6NA,_01603 788887,0,0,0,1,0,0
17986,G S B MOTORS,1 SUNBEAM ROAD,PARK ROYAL,,LONDON,NW10 6JB,_02089614969,0,0,0,1,0,1
V110584,BMW NINE ELMS,36 CUMBERLAND AVENUE,PARK ROYAL,,LONDON,NW10 7RR,_020 8963 8383,0,0,0,1,0,0
18859,ELI MOTORS LIMITED,49 VICTORIA ROAD,HENDON,,LONDON,NW4 2RU,_02082036449,0,0,0,1,0,0
V107299,CROWN MOTORS LIMITED (HENDON),GRAFTON HOUSE,HYDE ESTATE ROAD,HENDON,LONDON,NW9 6JZ,_020 8200 4040,0,0,0,1,0,0
V103011,BLUE PIT TEST CENTRE,BLUE PIT MILL,UNIT 5 QUEENSWAY,CASTLETON,ROCHDALE,OL11 2PG,_07947600145,0,0,0,1,0,0
1ALO66,THE GARAGE,MERCEDES HOUSE,PEEL MILL,MARKET STREET,SHAWFORTH,OL12 0HN,_01706852221,0,0,0,1,0,0
42946,ROYTON CAR SERVICES,HIGH BARN STREET,,ROYTON,OLDHAM,OL2 6DW,_01616244488,0,0,0,1,0,0
V107496,LOCKWOOD & GREENWOOD LIMITED,RYECROFT BUSINESS CENTRE,UNIT 4 - 6,RYECROFT STREET,ASHTON UNDER LYNE,OL7 0BS,_0161 301 5000,0,0,0,1,0,0
S001099,FOURWAYS MOT CENTRE,TROMAN HOUSE,STOCKFIELD ROAD,CHADDERTON,OLDHAM,OL9 9LG,_01612224624,0,0,0,1,0,0
9275AG,NATIONAL TYRES AND AUTOCARE,302 ABINGDON ROAD,,,OXFORD,OX1 4TF,_01865 247288,0,0,0,1,0,0
89732,JIM PINK WALLINGFORD LTD,WOOD STREET,,,WALLINGFORD,OX10 0AZ,_01491836022,0,0,0,1,0,0
S000952,BLADE MOTORCYCLES,Unit 9B,Nuffield Way,,Abingdon,OX14 1RN,_01235 550055,1,1,0,0,0,0
1AMF01,BIKEWISE MOTORCYCLES,1 AUDLETT DRIVE,,,ABINGDON,OX14 3JN,_01235535037,1,1,0,0,0,0
1120B4,BANBURY CAR CLINIC LTD,LOWER CHERWELL STREET,,,BANBURY,OX16 8AY,_01295254641,0,0,0,1,0,0
0492A8,EAGLE AUTOS,UNIT 9,THORPE WAY,,BANBURY,OX16 8SP,_01295265704/01295277773,1,1,0,1,0,0
4629B0,BRITANNIA GARAGE,UNIT 2,OVERTHORPE ROAD,,BANBURY,OX16 8SX,_01295268811,0,0,0,1,0,0
V103220,KWIK - FIT,KINGS END GARAGE,QUEENS AVENUE,,BICESTER,OX26 7TA,_01869322444,0,0,0,1,0,0
V105712,KJ'S MOTOR CAR ENGINEERS LTD,UNIT 4,TWO RIVERS INDUSTRIAL ESTATE,,WITNEY,OX28 4BW,_01993 772714,0,0,0,1,0,1
V100152,MOTEC,40 OAKLEY ROAD,,,CHINNOR,OX39 4ES,_01844 353388,0,0,0,1,0,1
2358BK,ARNOLD CLARK,9-15 PORT GLASGOW ROAD,,,GREENOCK,PA15 2UE,_01475742511,0,0,0,1,0,0
6239AY,BREMNER MOTORS,1 BRIDGE STREET,LINWOOD,,PAISLEY,PA3 3HW,_01505328150,0,0,0,1,0,0
3238AA,HALFORDS AUTOCENTRE,6 RANKINE STREET,,,JOHNSTONE,PA5 8BB,_01505324891,0,0,0,1,0,0
66514,LINCS MOT & RECOVERY LTD,180 LINCOLN ROAD,,,PETERBOROUGH,PE1 2NJ,_01733561710,0,0,0,1,0,0
2529BL,CLOSE MOTOR COMPANY,NEWARK ROAD,,,PETERBOROUGH,PE1 5QJ,_01733 893704,0,0,0,1,0,0
66599,TAYLORS OF SPALDING LTD,83 PINCHBECK ROAD,,,SPALDING,PE11 1QQ,_01775 723391,0,0,0,1,0,0
1AMA91,THURLOW NUNN,CROMWELL ROAD,,,WISBECH,PE14 0SF,_01945428620,0,0,0,1,0,0
S001521,R HOLMES MOTORCYCLES,Unit C5 March Enterprise Park,Thorby Avenue,March,Cambridgeshire,PE15 OBD,_01354 654777,1,1,0,0,0,0
V102208,MR TYRE LIMITED,MR TYRE LIMITED,39-41 BLUE STREET,,BOSTON,PE21 5UW,_01205 310022,0,0,0,1,0,0
V109213,STEBBINGS CAR CENTRE LTD,HAMLIN WAY,HARDWICK NARROWS,,KINGS LYNN,PE30 4NH,_01553 661661,1,1,0,1,1,1
8430BV,ARNOLD CLARK,172 DUNKELD ROAD,,,PERTH,PH1 3XJ,_01738633999,0,0,0,1,0,0
V106237,THOMSON & POTTER,1MANSON ROAD,,,PERTH,PH2 8BP,_01738494333,0,0,0,1,0,0
1ALC25,ONE CALL VEHICLE SERVICES LTD,UNIT 1,OLD ELECTRIC BUILDINGS,SHORE ROAD,PERTH,PH2 9BD,_01738444489,0,0,0,1,0,0
81062,QUAY GARAGE,THE PARADE,MILLBROOK,,TORPOINT,PL10 1AY,_01752822726,0,0,0,1,0,0
1ALQ93,A & K AUTO SERVICES,UNIT 5 CENTRAL COURT,CENTRAL AVENUE,LEE MILL INDUSTRIAL ESTATE,IVYBRIDGE,PL21 9DQ,_01752 895522,0,0,0,1,0,1
V110403,ROCHE MOT & TYRE CENTRE LTD,UNIT 2 BAMBER INDUSTRIAL ESTATE,VICTORIA,ROCHE,ST AUSTELL,PL26 8JX,_01726 890000,0,0,0,1,1,1
V101453,PLYMOUTH TRADE CENTRE LIMITED,36 SUTTON ROAD,COXSIDE,,PLYMOUTH,PL4 0HA,_01752 229409,0,0,0,1,0,0
81387,HALFORDS AUTOCENTRE,FORT AUSTIN AVENUE,CROWNHILL,,PLYMOUTH,PL5 5AQ,_01752704266,0,0,0,1,0,0
9199AY,NATIONAL TYRES & AUTOCARE,COT HILL,PLYMPTON,,PLYMOUTH,PL7 3SB,_01752 340902,0,0,0,1,0,0
V109604,FORMULA ONE AUTOCENTRES,UNIT 1,FAREHAM BUSINESS PARK,154 FAREHAM ROAD,GOSPORT,PO13 0AS,_01329 280000,0,0,0,1,0,0
1AMD83,ALLCARS,UNIT 2,CASTLE TRADING ESTATE,PORTCHESTER,FAREHAM,PO16 9XX,_02392215369,0,0,0,1,0,0
V102027,KWIK-FIT,151 ST PANCRAS,,,CHICHESTER,PO19 1SH,_01243784010,0,0,0,1,0,0
86256,CMW MOTORCYCLES,THE HORNET,,,CHICHESTER,PO19 4JG,_01243 782544,1,1,0,0,0,0
6368BA,CATHEDRAL GARAGE,UNIT 5 SPITALFIELD LANE,,,CHICHESTER,PO19 4YJ,_01243 783535,0,0,0,1,0,0
89275,HI Q (ELITE GARAGES),COACH & HORSES ROUNDABOUT,LONDON ROAD,HILSEA,PORTSMOUTH,PO2 9RH,_02392663351,0,0,0,1,0,0
V109496,A & D AUTOS (BOGNOR) LIMITED,UNIT 3 OLDLANDS WAY,SOUTHERN CROSS INDUSTRIAL ESTATE,,BOGNOR REGIS,PO22 9SA,_01243 870600,0,0,0,1,1,1
V100644,PENTAGON PORTSMOUTH,BILTON WAY,PORTSMOUTH MOTOR PARK,AIRPORT SERVICE ROAD,PORTSMOUTH,PO3 5PD,_02392 656565,0,0,0,1,0,0
V102265,DUNSBURY PARK TESTING CENTRE,UNIT 7,DUNSBURY BUSINESS PARK,FULL FLOOD ROAD,HAVANT,PO9 5DG,_02392 482000,0,0,0,1,0,0
7296BH,OAKWELL AUTO ELECTRICALTD,HASTINGS RD,,,LEYLAND,PR25 2WP,_01772453836,0,0,0,1,0,1
V100239,LEYLAND GARAGE SERVICE CENTRE,LEYLAND GARAGE SERVICE CENTRE,UNIT 4 CENTURIAN BUSINESS PARK,WHEELTON LANE,LEYLAND,PR25 4SN,_01772433774,0,0,0,1,1,1
6302A3,RIBBLE VALLEY TYRE AND AUTO SERVICES LTD,STONEBRIDGE MILL,OFF KESTOR LANE,LONGRIDGE,PRESTON,PR3 2AD,_01772784000,0,0,0,1,0,0
V109328,WARFIELDS MOT & SERVICE CENTRE,WARFIELDS MOT & SERVICE CENTRES,"MALLARD HOUSE, UNIT B WATERSIDE PARK",COOKHAM ROAD,BRACKNELL,RG12 1XH,_01344 424363,0,0,0,1,0,0
2927B1,BRACKNELL MOT CENTRE,UNIT 25,SCOTTS FARM,AMEN CORNER  BINFIELD,BRACKNELL,RG12 4TH,_01344301402,0,0,0,1,0,0
2685A2,THATCHAM MOT CENTRE,UNIT 2,65-67 BATH ROAD,,THATCHAM,RG18 3BE,_01635 860011,0,0,0,1,0,0
92538,NATIONAL TYRES & AUTOCARE,196 BASINGSTOKE ROAD,,,READING,RG2 0HL,_0118 9871624,0,0,0,1,0,0
S000669,READING AUDI,Worton Drive,,,Reading,RG2 1TD,_0118 975 4900,0,0,0,1,0,0
V109587,MOSS VEHICLE MAINTENANCE,WELFORD WORKS,,,NEWBURY,RG20 8GA,_01488 657777,0,0,0,1,0,0
6523BT,HALFORDS AUTOCENTRE,150 WORTING ROAD,THORNYCROFT INDUSTRIAL ESTATE,,BASINGSTOKE,RG21 1BJ,_01256329224,0,0,0,1,0,0
V105354,HOUNDMILLS MOT CENTRE,10 JOULE ROAD,HOUNDMILLS,,BASINGSTOKE,RG21 6XF,_01256 333093,0,0,0,1,1,1
V107792,CROWTHORNE SERVICE CENTRE,CROWTHORNE SERVICE CENTRE,173-175 DUKES RIDE,,CROWTHORNE,RG45 3NZ,_01344 777005,0,0,0,1,0,0
V103635,ANCHOR VANS,ANCHOR BUSINESS PARK,A4 BATH ROAD,PADWORTH,READING,RG7 5JE,_01189 710230,0,0,0,1,1,1
18850,AUTO SERVICES HORLEY LIMITED,CAR AND COMMERCIAL SERVICES,HEATH BUSINESS CENTRE,BONEHURST ROAD  SALFORDS,REDHILL,RH1 5ER,_01293 785176,0,0,0,1,0,0
1632B2,TATES,FLEMING WAY,,,CRAWLEY,RH10 2JY,_01293 414000,0,0,0,1,0,0
V106545,COPTHORNE MOTOR COMPANY,18 ROYCE ROAD INDUSTRIAL PARK,FLEMING WAY,,CRAWLEY,RH10 2NX,_01293 888333,1,1,0,1,1,1
S002179,TUBBYS TYRES GARAGE LIMITED,ACACIA GROVE,COPTHORNE ROAD,COPTHORNE,WEST SUSSEX,RH10 3OD,_07737 732307,0,0,0,1,0,0
9336BA,MOTORLINE NISSAN,1 GATWICK ROAD,,,CRAWLEY,RH10 9QD,_01293 844700,0,0,0,1,0,0
V108136,MERCEDES BENZ OF GATWICK,78 GATWICK ROAD,,,CRAWLEY,RH10 9YB,_01293 594300,0,0,0,1,0,0
91987,ELITE GARAGES,MARKET PLACE,,,HAYWARDS HEATH,RH16 1XG,_01444 417451,0,0,0,1,0,0
S001747,CHARLWOOD AUTOMOTIVE LIMITED,4 CHARLWOOD PLACE,NORWOOD HILL ROAD,CHARLWOOD,SURREY,RH6 OEB,_01293 863535,0,0,0,1,0,0
25520,BEAM MOT CENTRE,21 NEW ROAD,,,RAINHAM,RM13 8DP,_01708550100,0,0,0,1,0,0
V102938,UNIVERSAL TYRES DEPTFORD LIMITED,680 LONDON ROAD,,,THURROCK,RM20 3LX,_01708 866901,0,0,0,1,1,1
V109541,COLLIER ROW TYRE SERVICES LTD,2 HOG HILL,COLLIER ROW,,ROMFORD,RM5 2DN,_01708 766282,0,0,0,1,0,0
V109400,HALFORDS AUTOCENTRES LTD,COOKES CORNER,WANGLEY ROAD,CHADWELL HEATH,ROMFORD,RM6 4BW,_02085906770,0,0,0,1,0,0
V106824,EAST LONDON HYUNDAI LTD,HAINAULT ROAD,EASTERN AVENUE WEST,,ROMFORD,RM7 7AQ,_01708 765473,0,0,0,1,0,0
6718BA,V & H SERVICES,UNIT 5,THE BEAVER CENTRE,SELINAS LANE,DAGENHAM,RM8 1NX,_02085937735,0,0,0,1,0,0
1ALS34,STUBLEY LANE AUTOCENTRE,STUBLEY LANE,DRONFIELD WOODHOUSE,,DERBYSHIRE,S18 5YN,_01246291324,0,0,0,1,0,0
7609BA,DOT MOT LIMITED,1 OLIVE GROVE ROAD,,,SHEFFIELD,S2 3GB,_01142763636,0,0,0,1,0,0
34018,ARMANDOS SCOOTERS,80 RANDALL STREET,,,SHEFFIELD,S2 4SH,_01142730464,1,1,0,0,0,0
37312,MOUNT PLEASANT GARAGE,MAIN ROAD,GRINDLEFORD,,SHEFFIELD,S32 1HA,_01433630604,0,0,0,1,0,0
2911BC,MARK BRAMHALL LIMITED,UNIT 1,CLARENCE WORKS,FOLEY STREET,SHEFFIELD,S4 7YU,_01142755549,0,0,0,1,0,0
S001864,STONEACRE CHESTERFIELD,SHEFFIELD ROAD,,WHITTINGTON,CHESTERFIELD,S41 8NJ,_01246 383897,0,0,0,1,0,1
1ALN94,ROBINS AND DAY SHEFFIELD,PENISTONE ROAD,,,SHEFFIELD,S6 2HL,_01142856150,0,0,0,1,1,1
1ALH72,BSR VEHICLE SERVICES,THE WORKSHOP,CORONATION STREET,THURNSCOE,ROTHERHAM,S63 0EQ,_01709895073,0,0,0,1,0,0
8343A1,D HARDING MOT CENTRE,HEELIS STREET,,,BARNSLEY,S70 1LD,_01226 321456,0,0,0,1,0,0
V107598,HALFORDS AUTOCENTRE,UNIT 1,WOMBWELL LANE,,BARNSLEY,S70 3NU,_01226 294759,0,0,0,1,0,0
G1210,ROYAL MAIL GROUP PLC FLEET AND MAINTENANCE SERVICES,FIRST POST HOUSE,BRIGHTSIDE LANE,,SHEFFIELD,S9 2NZ,_01142566800,0,0,0,1,0,1
S001140,SYTNER SHEFFIELD,445 BRIGHTSIDE LANE,,,SHEFFIELD,S9 2RR,_0114 256 5900,0,0,0,1,0,0
V107023,HALFORDS AUTOCENTRE,UNIT 1,NEW CUT ROAD,,SWANSEA,SA01 8AP,_01792475861,0,0,0,1,1,1
V105691,DRAGON & SHAMROCK MOT & REPAIR CENTRE,7 GURNOS ESTATE,LOWER CWMTWRCH,,SWANSEA,SA09 2HW,_01639 849333,1,1,1,1,0,0
76196,STATION MOTORS,STATION ROAD,,,LLANDEILO,SA19 3NG,_01558823640,1,1,0,1,0,0
76191,ATS EUROMASTER LIMITED,PENSARN ROAD,,,CARMARTHEN,SA31 2BU,_01267 236996/01267235163,0,0,0,1,0,1
75462,HUGHES AND WILLIAMS,CROSS GARAGE,PENLLERGAER,,SWANSEA,SA4 1AQ,_01792891745,0,0,0,1,0,0
5162BD,M & P DIRECT,PHOENIX WAY,GARNGOCH INDUSTRIAL ESTATE,GORSEINON,SWANSEA,SA4 1HN,_01792224469,1,1,0,0,0,0
76181,PONTARDDULAIS MOT CENTRE,113 BOLGOED ROAD,PONTARDULAIS,,SWANSEA,SA4 1JP,_01792884744,0,0,0,1,0,0
9606AB,CHEQUERED FLAG MOTORS,SWANSEA ROAD,KINGSBRIDGE,,SWANSEA,SA4 2AS,_01792898864,0,0,0,1,0,0
0546B7,D J SERVICES THE MOT CENTRE,UNIT 3A,43-47 EATON ROAD,BRYNHYFRYD,SWANSEA,SA5 9JX,_01792468092,0,0,0,1,0,0
V100636,GREENS MOTORS LTD,GREENS MOTORS LTD,WITHYBUSH INDUSTRIAL ESTATE,,HAVERFORDWEST,SA61 4BW,_01437 771530,0,0,0,1,0,0
V103865,GRAVELL'S LIMITED,UNIT 9C ATLANTIC CLOSE,PHOENIX WAY,SWANSEA ENTERPRISE PARK,SWANSEA,SA7 9DQ,_01792 277235,0,0,0,1,0,0
S001737,STODDART TYRES,UNIT 3,LONDON ROAD MALL,,PEMBROKE DOCK,SA71 4AJ,_01646 686663,0,0,0,1,0,0
6255AU,GENERAL AUTOS,171 ABBEY STREET,BERMONDSEY,,LONDON,SE1 3NS,_02072373444,0,0,0,1,0,1
3631A9,TOP GEAR MOTORS,ARCH 438,GORDON GROVE,CAMBERWELL,LONDON,SE5 3DU,_02077331622,1,1,0,1,0,0
V101573,BABCOCK CRITICAL SERVICES LIMITED,25-33 PARKHOUSE STREET,CAMBERWELL,,LONDON,SE5 7TN,_020 3856 5930,1,1,0,1,0,1
10754,MARSHALL OF KNEBWORTH,53 LONDON ROAD,WOOLMER GREEN,,KNEBWORTH,SG3 6JB,_01438818700,0,0,0,1,0,0
8408B3,NORTON WAY MOTORS LTD,NORTON WAY NORTH,,,LETCHWORTH,SG6 1BN,_07764815511,1,1,0,1,0,0
V103022,LTG MOTORS BALDOCK,UNIT 20,PROTEA WAY,PIXMORE AVENUE,LETCHWORTH,SG6 1FS,_01462 671800,0,0,0,1,0,0
2521B0,HALFORDS AUTOCENTRE,VICTORY WORKS,BIRDS HILL,,LETCHWORTH,SG6 1JU,_01462681552,0,0,0,1,0,0
39525,LOOKERS KIA STOCKPORT,MERSEY STREET,,,STOCKPORT,SK1 2HY,_0161 333 3344,0,0,0,1,0,0
S001300,LOOKERS VOLVO STOCKPORT,1 ST MARYS WAY,PORTWOOD,,STOCKPORT,SK1 2HY,_0161 864 5668,0,0,0,1,0,0
9358BQ,LOOKERS ITALIA FIAT,ST MARYS WAY,,,STOCKPORT,SK1 4AW,_01613333344,0,0,0,1,0,0
7553B7,LOOKERS RENAULT STOCKPORT,ST MARYS WAY,,,STOCKPORT,SK1 4AW,_01613333366,0,0,0,1,0,0
V100414,LOOKERS STOCKPORT SEAT,ST MARYS WAY,,,STOCKPORT,SK1 4AW,_0161 333 3344,0,0,0,1,0,0
42071,CENTRAL TYRE & AUTO SERVICES,LONDON ROAD,,,MACCLESFIELD,SK11 7SR,_01625 421666,0,0,0,1,0,1
0858BZ,EVANS HALSHAW FORD GLOSSOP,BROOKFIELD,,GLOSSOP,HIGH PEAK,SK13 9JF,_01457892082,0,0,0,1,0,0
1AKV19,PORTMAN MOTOR COMPANY,PITT STREET,OFF CLARK WAY,,HYDE,SK14 2AT,_01613689065,0,0,0,1,0,0
44675,TAMESIDE METROPOLITAN BOROUGH COUNCIL,TAME STREET DEPOT,TAME STREET,,STALYBRIDGE,SK15 1SU,_01613422724,0,0,0,1,1,1
S001523,P and L Motors,Unit 1,96-100 Wharf Street,,Dukinfield,SK16 4SF,_0161 222 9800,1,1,0,1,0,1
6672BB,SPRINGBOK AUTO SERVICES,UNIT 18 GAS STREET,OFF HEATON LANE,,STOCKPORT,SK4 1AP,_01614803392,0,0,0,1,0,0
V100653,HALLMARK VOLVO SPECIALISTS,CANAL WHARF,WHARF STRETT,OFF LANCASHIRE HILL,STOCKPORT,SK4 1UF,_0161 429 0008,0,0,0,1,0,0
3275BK,REVSONS MOT & TYRE CENTRE,45 STATION ROAD/ WARREN ROAD,CHEADLE HULME,,STOCKPORT,SK8 7AF,_01614861888,0,0,0,1,0,0
V100052,JOHNSONS HONDA,748/749 DOVER ROAD,SLOUGH TRADING ESTATE,,SLOUGH,SL1 4RS,_01753 575566,0,0,0,1,0,0
V100642,ADVANCED AUTO TECHNIK LIMITED,UNIT E CHANCERY GATE BUSINESS CENTRE,ST MARYS ROAD,LANGLEY,SLOUGH,SL3 7EP,_01753 549297,0,0,0,1,0,0
1AKV24,DEFTERA MOTORS,ARCH 59,ALMA ROAD,,WINDSOR,SL4 3YH,_01753621757,0,0,0,1,0,0
6830A1,HAMILTON BIRD MOTOR COMPANY LIMITED,HALFPENNYS GARAGE,KINGSWICK CORNER,SUNNINGHILL,ASCOT,SL5 7BT,_01344623733,0,0,0,1,0,0
V106990,BERKSHIRE TOYOTA,BERKSHIRE TOYOTA,VENTURE HOUSE,WALDECK ROAD,MAIDENHEAD,SL6 8BZ,_01628 788001,0,0,0,1,1,1
V103387,ATS EUROMASTER LIMITED,1 STATION ROAD,BOURNE END,,BUCKS,SL8 5QB,_01628 526015,0,0,0,1,0,0
8853BV,YOUNGS SERVICE & REPAIR CENTRE LTD,GRAVEL HILL,AMERSHAM ROAD,,CHALFONT ST PETER,SL9 9QN,_01753888058,0,0,0,1,0,0
81346,M & B AUTOS,CHAPEL STREET,GORSE HILL,,SWINDON,SN2 6DA,_01793612600,0,0,0,1,0,0
1AKX50,BLADE MOTORCYCLES,ELGIN DRIVE,,,SWINDON,SN2 6DP,_01793500259,1,1,0,0,0,0
1ALJ37,KINGSDOWN MOT CENTRE,UNIT 14,KINGSDOWN INDUSTRIAL ESTATE,KINGSDOWN ROAD,SWINDON,SN25 6PS,_01793831400,0,0,0,1,0,0
S000464,DICK LOVETT (SPECIALIST CARS) LTD,ASHWORTH ROAD,,BRIDGEMEAD,SWINDON,SN5 7YH,_01793 279357,0,0,0,1,0,0
7485BL,INCHCAPE VOLKSWAGEN SWINDON,FRANKLAND ROAD,,,SWINDON,SN5 8SU,_01793600010,0,0,0,1,0,0
78203,FAWCETTS GARAGE (NEWBURY),GREAT WESTERN WAY,BLAGROVE,,SWINDON,SN5 8TZ,_01793 882299,0,0,0,1,0,0
V110517,PORSCHE CENTRE CARDIFF,UNIT 16 SUNRISE,EUROWAY,BLAGROVE,SWINDON,SN5 8YQ,_01793429123,0,0,0,1,0,0
90419,RICHMOND SOUTHAMPTON,WEST QUAY ROAD,,,SOUTHAMPTON,SO15 1BW,_02380333435,0,0,0,1,0,0
V105597,HENDY FORD SOUTHAMPTON,WARWICK HOUSE,WEST QUAY ROAD,,SOUTHAMPTON,SO15 1SZ,_02380386222,0,0,0,1,0,0
V104574,ROPLEY MOTOR SERVICES,BARTON INDUSTRIAL ESTATE,,,ALRESFORD,SO24 8RN,_01420 568099,1,1,1,1,1,1
V110118,PETER COOPER MOTOR GROUP LTD,ROYAL LONDON PARK,FLANDERS ROAD,HEDGE END,SOUTHAMPTON,SO30 4QH,_01489783434,0,0,0,1,0,0
1ALQ35,HAMPSHIRE COUNTY COUNCIL,TOTTON WORKSHOP,JACOBS GUTTER LANE,HOUNSDOWN,TOTTON,SO40 9TH,_02380669120,0,0,0,1,1,1
S001673,FORMULA ONE AUTOCENTRES LIMITED,UNIT 6 GLENMORE TRADE PARK,GREENWICH WAY,,ANDOVER,SP10 4DR,_01264 363110,0,0,0,1,0,0
V101371,CROXDALE FAST-FIT LTD,RYHOPE ROAD SERVICE STATION,RYHOPE ROAD,,SUNDERLAND,SR2 9SX,_0191 5678988,0,0,0,1,0,0
69410,ELMSLEIGH INVACAR,ARMSTRONG ROAD,MANOR TRADING ESTATE,,BENFLEET,SS7 4PP,_01268792761,0,0,0,1,0,1
S001571,Saxons MOT Services,Unit C (2) Charfleets Road,Canvey Island,,Essex,SS8 OPQ,_01268 744322,1,1,0,1,0,1
V109785,FAIRFIELD GARAGE (LEIGH ON SEA) LTD,UNIT 1/2 AIRBORNE CLOSE,EASTWOOD,,LEIGH ON SEA,SS9 4ES,_01702 420111,0,0,0,1,0,0
V101059,FORMULA ONE AUTO CENTRES,UNIT 1,721 LEEK ROAD,HANLEY,STOKE ON TRENT,ST1 3AQ,_01782 202010,0,0,0,1,0,0
51083,NORMAN AND BIRCH LTD,LMS YARD,CLOUGH STREET,,STOKE ON TRENT,ST1 4AA,_01782202467,1,1,0,0,0,0
55566,R J AND A CADDICK MOTOR SERVICES,ALEXANDRA ROAD,,,STAFFORD,ST16 4DE,_01785251568,0,0,0,1,0,0
9225B2,SHELTON MOT CENTRE LTD,WINTON HOUSE,NEWLANDS STREET,,STOKE ON TRENT,ST4 2RN,_01782844140,0,0,0,1,0,0
1ALA53,JOHNSONS AUTOS,UNIT 3,CHRISTOPHER SQUARE,MASON STREET,FENTON,ST4 3RW,_01782594195,0,0,0,1,0,0
S002073,R AND B AUTO REPAIRS,288 HARTSHILL ROAD,STOKE ON TRENT,,STAFFORDSHIRE,ST4 7NA,_01782 616 151,0,0,0,1,0,0
54889,COMMERCIAL STREET GARAGE,COMMERCIAL STREET,BURSLEM,,STOKE ON TRENT,ST6 3BU,_01782837967,0,0,0,1,0,0
1ALU83,KWIK FIT,12 KINGSTON ROAD,WIMBLEDON,,LONDON,SW19 2QW,_02085420233,0,0,0,1,0,0
V103288,BMW NINE ELMS,102-104 STEWART ROAD,BATTERSEA,,LONDON,SW8 4UY,_020 78192600,1,1,0,1,0,0
3002B9,SHREWSBURY HONDA CENTRE,HARLESCOTT LANE,SHREWSBURY,SHROPSHIRE,SHREWSBURY,SY1 3AD,_01743440770,1,1,0,0,0,0
S002011,W R DAVIES MOTORS LTD,HARLESCOTT LANE,,SHREWSBURY,SHROPSHIRE,SY1 3AG,_01743 454040,0,0,0,1,0,0
V110516,PHILIP PAUL,MAESBURY ROAD,,,OSWESTRY,SY10 8JW,_01691 655556,0,0,0,1,0,0
40028,H BALLARD & SON,UNION STREET GARAGE,,,WELSHPOOL,SY21 2EJ,_01938553152,0,0,0,1,0,0
V105738,BORDER GARAGE (WELSHPOOL) LTD,BORDER GARAGE,NEWTOWN ROAD,,WELSHPOOL,SY21 8RR,_01938 554444,1,1,0,1,1,1
6493BC,KWIK-FIT,PARK AVE,,,ABERYSTWYTH,SY23 1AA,_01970625554,0,0,0,1,0,0
V102295,MOT CLINIC LTD,UNIT 1 CRAVEN COURT,LONG LANE INDUSTRIAL ESTATE,,CRAVEN ARMS,SY7 8NS,_01588673876,1,1,0,1,1,1
55563,TELFORD MOTORS LTD,HOLYHEAD ROAD,KETLEY,,TELFORD,TF1 4DY,_01952620404,0,0,0,1,0,0
V109742,MTS,HALESFIELD 8,HALESFIELD,,TELFORD,TF7 4ES,_01952 588005,1,1,1,1,1,1
S001841,LANCASTER JAGUAR LAND ROVER TONBRIDGE,UNIT 1 WOODGATE WAY,,,TONBRIDGE KENT,TN11 OFU,_01732 376000,0,0,0,1,0,0
S002258,PORSCHE CENTRE TONBRIDGHE,BROOK FARM,FIVE OAK GREEN ROAD,,TONBRIDE KENT,TN11 OQN,_01732 361222,0,0,0,1,0,0
8021B7,MOT PLUS,NORTH FARM ROAD,,HIGH BROOMS,TUNBRIDGE WELLS,TN2 3EA,_01892538336,0,0,0,1,0,1
8122AD,JUST MOTS,UNIT 6,BELLBROOK ENTERPRISE CENTRE,BELLBROOK INDUSTRIAL ESTATE,UCKFIELD,TN22 1QZ,_01825768078,0,0,0,1,0,0
V101798,St Leonards Test Centre Limited,80 Castleham road,,,St Leonards On Sea,TN38 7HB,_01424 850700,0,0,0,1,0,0
V107946,HARWOODS EDENBRIDGE,STANFORDS END,HARTFIELD ROAD,,EDENBRIDGE,TN8 5NG,_01732 863303,0,0,0,1,0,0
4646A1,PTA MOTORING CENTRE,MILL HILL,,,EDENBRIDGE,TN8 5NG,_01732867776,0,0,0,1,0,0
79615,MURRAY NEWTON ABBOT,THE AVENUE,,,NEWTON ABBOT,TQ12 2DE,_01626202205,0,0,0,1,0,0
V103728,BENNETTS MOT & SERVICE CENTRE,UNIT 2,SIGNAL BUILDINGS,BRUNEL ROAD,NEWTON ABBOT,TQ12 4UF,_01626 335474,1,1,0,1,0,0
G2450,ROYAL MAIL GROUP PLC FLEET AND MAINTENANCE SERVICES,STATION HILL,,,REDRUTH,TR14 1AA,_01209216454,0,0,0,1,0,0
82467,CORMAC SOLUTIONS LIMITED,CTO ENGINEERING  WORKSHOPS,RADNOR ROAD,SCORRIER,REDRUTH,TR16 5AZ,_01872327349,0,0,0,1,1,1
V101091,COLLINS OF PROBUS LTD,UNIT 3,TRESILLIAN BUSINESS PARK,TRESILLIAN,TRURO,TR2 6AJ,_01872 520654,1,1,0,1,0,0
29572,ATLAS GARAGE,NORTH STREET,,,MIDDLESBROUGH,TS1 1JN,_01642247417,0,0,0,1,0,0
31072,HALFORDS AUTOCENTRE,1 STATION STREET,LINTHORPE ROAD,,MIDDLESBROUGH,TS1 1ST,_01642242152,0,0,0,1,0,0
V100929,KWIK FIT,102 YARM LANE,,,STOCKTON ON TEES,TS18 1LF,_01642605172,0,0,0,1,0,0
3603B5,ROSS COMMERCIAL SERVICES MOT,UNIT 3,CARROL STREET,,STOCKTON,TS18 2EU,_01642676069,0,0,0,1,0,1
1ALL01,MORGANS TYRES LTD,GRANGEFIELD ROAD,,,STOCKTON,TS18 4AF,_01642670411,0,0,0,1,0,1
V104728,TEES MOT SERVICES LTD,UNIT 2,TRANSPORT HOUSE,SCOTTS ROAD,MIDDLESBROUGH,TS2 1QH,_01642 211908,0,0,0,1,1,1
V103812,ONE STOP,CAMBRIDGE ROAD,,,MIDDLESBROUGH,TS3 8AY,_01642 223355,0,0,0,1,1,1
29529,MIDDLESBROUGH BOROUGH COUNCIL,DEPT OF CONTRACT SERVICES,COUNTY DEPOT,CARGO FLEET LANE,MIDDLESBROUGH,TS3 8DQ,_01642728065,0,0,0,1,1,1
29170,STONEACRE,220 MARTON ROAD,,,MIDDLESBROUGH,TS4 2EX,_01642282930,0,0,0,1,0,0
V103160,EXECUTIVE PERFORMANCE CARS (HEATHROW) LIMITED,"UNIT 10, MARLIN PARK",CENTRAL WAY,,FELTHAM,TW14 0XD,_020 8867 0900,0,0,0,1,0,1
S001781,TAYLOR MOT,32-34 FELTHAM ROAD,,,ASHFORD,TW151DL,_01784240000,0,0,0,1,0,0
V108156,HALFORDS AUTOCENTRES LIMITED,UNIT 2,HOUNSLOW TRADE PARK,STAINES ROAD,HOUNSLOW,TW3 3JL,_020 8570 3042,0,0,0,1,0,0
V102939,AUTOMANIA COMMERCIALS LIMITED,686 STEYNING WAY,,,HOUNSLOW,TW4 6DL,_020 8572 2525,0,0,0,1,1,1
V107990,M P BRENTFORD LIMITED,BRIDGE HOUSE,1 COMMERCE ROAD,,BRENTFORD,TW8 8LR,_020 8568 0185,0,0,0,1,0,1
S000452,GWR KIA,963 GREAT WEST ROAD,,,BRENTFORD,TW8 9AU,_0203 841 0261,0,0,0,1,0,1
2587B1,HALFORDS  AUTOCENTRE,85-86  GUNNERSBURY LANE,,,ACTON,W3 8HH,_02087520202,0,0,0,1,0,0
4942B2,ARNOLD CLARK,860 EUROPA BOULEVARD,WESTBROOK,,WARRINGTON,WA5 7TU,_01925 575885,0,0,0,1,0,0
V102828,LUNTS HEATH GARAGE,LUNTS HEATH ROAD,,,WIDNES,WA8 5NZ,_0151 4207110,0,0,0,1,0,0
S001497,HARTWELL WATFORD,200 RICKMANSWORTH ROAD,,,WATFORD,WD18 7GH,_01422 220200,0,0,0,1,1,1
9355AD,FAIRWAY TYRE & AUTO SERVICES (RICKMANSWORTH),90 UXBRIDGE ROAD,MILL END,,RICKMANSWORTH,WD3 2BW,_01923721008,0,0,0,1,0,0
V106068,TYRE CITY,NORTHGATE,,,WAKEFIELD,WF1 3LG,_01924375533,0,0,0,1,0,0
37918,THORPE BROTHERS,OLD GREAT NORTH ROAD,FERRYBRIDGE,,KNOTTINGLEY,WF11 8NN,_01977674561,0,0,0,1,0,0
5189B5,A A AND A AUTOS LIMITED,UNIT 2,SAVILE BRIDGE MILLS,MILL STREET EAST,DEWSBURY,WF12 9DD,_01924466664,0,0,0,1,0,0
6863BL,CHAPEL AUTO GARAGES,UNIT 1,BRYER STREET,EIGHTLANDS,DEWSBURY,WF13 2NU,_01924469928,0,0,0,1,0,0
S001231,BELL LANE GARAGE LIMITED,53E LIDGATE CRESCENT,LANGTHWAITE BUSINESS PARK,SOUTH KIRKBY,PONTEFRACT,WF9 3NS,_01977 651100,0,0,0,1,1,1
V109145,HOYLE MILL MOT CENTRE,KING STREET,KINSLEY,,PONTEFRACT,WF9 5EQ,_01977 615457,0,0,0,1,0,0
V102134,CHORLEY NISSAN WIGAN,POTTERY ROAD,,,WIGAN,WN3 5AD,_01942820233,0,0,0,1,0,0
V101416,ARNOLD CLARK,122 - 138 WIGAN ROAD,,ASHTON IN MAKERFIELD,WIGAN,WN4 8LY,_01942 408 630,0,0,0,1,0,0
1AKZ66,KWIK FIT,WALLGATE,,,WIGAN,WN5 0XT,_01942248197,0,0,0,1,0,0
45932,LINDONS GARAGE,GRIMROD PLACE,GILLIBRANDS ROAD,,SKELMERSDALE,WN8 5UU,_01695724024,1,1,0,1,0,0
V100336,KWIK-FIT,1 CARDEN STREET,CITY WALLS,,WORCESTER,WR1 2AX,_0190524171,0,0,0,1,0,0
55236,B T E AUTO REPAIRS,CRAVENS YARD,CHURCH STREET,,EVESHAM,WR11 6DS,_01386 47004,0,0,0,1,0,0
55449,HALFORDS AUTOCENTRE,UNIT 1,FOUR POOLS RETAIL PARK,,EVESHAM,WR11 6XJ,_01386 47236,0,0,0,1,0,0
7359BF,GREEN LINE CONTRACTS LIMITED,UNIT 14,ST RICHARDS ROAD,,EVESHAM,WR11 6XJ,_01386446700,0,0,0,1,0,0
7801B0,Motorline Hyundai,EVEROAK ESTATE,BROMYARD ROAD,,WORCESTER,WR2 5HW,_01905 402804,0,0,0,1,0,0
1ALY69,BRISTOL STREET WORCESTER,UNIT F AND G,COSGROVE CLOSE,BLACKPOLE,WORCESTER,WR3 8UE,_01905 343434,0,0,0,1,1,1
9302BP,RINGWAY INFRASTRUCTURE SERVICES,FLEET SERVICES DIVISION,WARNDON DEPOT PERSHORE LANE,WARNDON,WORCESTER,WR4 0ZW,_0845 223 5530,0,0,0,1,1,1
4260B6,B J H MOTORS AND SONS,TOLLADINE ROAD,,,WORCESTER,WR4 9PU,_01905 27206,0,0,0,1,0,1
V105433,KWIK - FIT,41 / 44 WARD STREET,,,WALSALL,WS1 2AH,_01922722725,0,0,0,1,0,0
55152,CARLTON MOTORS SERVICE CENTRE,15-16 DUDLEY STREET,,,WEDNESBURY,WS10 7EX,_0121 502 0838,0,0,0,1,0,0
2369AQ,IJS CAR AND COMMERCIAL SERVICES,15 TO 17 CANNOCK MOTOR VILLAGE,CHASESIDE DRIVE,,CANNOCK,WS11 2GD,_01543574000,0,0,0,1,1,1
52139,TOWER GARAGE,BRINDLEY HEATH ROAD,PYE GREEN,HEDNESFORD,CANNOCK,WS11 2RW,_01543422180,0,0,0,1,0,0
1ALL35,CHASE SUPERBIKE CENTRE LIMITED,UNITS 1 AND 2,NEW STREET,BRIDGTOWN,CANNOCK,WS11 3BD,_01543466416,1,1,0,0,0,0
53996,BRINCARS LTD,DELTA WAY,,,CANNOCK,WS11 3BE,_01543506216,0,0,0,1,0,0
54840,K D AUTOS LIMITED,40B LONGFORD ROAD,BRIDGTOWN,,CANNOCK,WS11 3DF,_01543466782,0,0,0,1,0,0
V102986,KWIK - FIT,RUMORHILL ROAD,,,CANNOCK,WS11 3HA,_01543506931,0,0,0,1,1,1
1ALD13,MOT CENTRE,WALKMILL LANE,BRIDGTOWN,,CANNOCK,WS11 3LN,_01543467999,0,0,0,1,0,0
V101134,OAKLEYS GARAGE,RUGELEY ROAD,HEDNESFORD,,CANNOCK,WS12 1BZ,_01543 426262,0,0,0,1,0,0
55543,UXBRIDGE MOTORS,4 6 UXBRIDGE STREET,HEDNESFORD,,CANNOCK,WS12 5DB,_01543422658,1,1,0,1,0,0
55519,ATS EUROMASTER LIMITED,CANNOCK ROAD,HEATH HAYES,,CANNOCK,WS12 5HG,_01543279333,0,0,0,1,0,0
1132AC,PERKINS BROTHERS GARAGE,187 HEDNESFORD ROAD,HEATH HAYES,,CANNOCK,WS12 5HN,_01543279238,0,0,0,1,0,0
2716BH,END LANE GARAGE LIMITED,CHASESIDE DRIVE,,,CANNOCK,WS12 5LT,_01543422437,0,0,0,1,0,0
53871,WINDMILL SERVICE STATION,CANNOCK WOOD ROAD,RAWNSLEY,HEDNESFORD,CANNOCK,WS12 5PZ,_01543422267,0,0,0,1,0,0
3089AP,A R AUTO REPAIRS,UNIT 3 GREEN IND EST,STATION ROAD,HEDNESFORD,CANNOCK,WS12 5QS,_01543425565,0,0,0,1,0,0
8349AF,LOWER ROAD SERVICE CENTRE LIMITED,UNIT 6,OAKLANDS BUSINESS PARK,LOWER ROAD,HEDNESFORD,WS12 5UZ,_01543876616,0,0,0,1,1,1
51901,GRANGE GARAGE,GRANGE GARAGE,WALLOWS LANE,,WALSALL,WS2 9DD,_01922613100,0,0,0,1,0,0
V108599,AUTOLINK SERVICE CENTRE,UNIT 3 GREAT BRICKKILN STREET,,,WOLVERHAMPTON,WV03 0PT,_01902 423333,0,0,1,1,1,1
1397AQ,KWIK FIT,STAFFORD ST,,,WOLVERHAMPTON,WV1 1NG,_01902710616,0,0,0,1,1,1
1AKU70,NEW CROSS MOTOR COMPANY,WOLVERHAMPTON ROAD,HEATH TOWN,,WOLVERHAMPTON,WV10 0QS,_01902863300,0,0,0,1,0,0
0416BU,W BRINDLEY GARAGES LTD,WEST STREET,WOLVERHAMPTON,,WOLVERHAMPTON,WV10 6HX,_01902 393220,0,0,0,1,0,0
1ALW73,EXPRESS EXHAUST AND TYRES LTD,GORSEBROOK ROAD,,,WOLVERHAMPTON,WV10 6JB,_01902427766,0,0,0,1,1,1
V109399,BUSHBURY AUTO CENTRE,THE OLD GARAGE,FORDHOUSE ROAD,,BUSHBURY,WV10 9EY,_01902 789319,0,0,0,1,1,1
V100544,BROWNSHORE MOTORS LTD,EZEKIEL LANE,,,WILLENHALL,WV12 3YG,_01922 476529,0,0,0,1,0,1
54311,IMPERIAL SERVICE STATION,OXFORD STREET,BILSTON,,WOLVERHAMPTON,WV14 8AA,_01902546111,0,0,0,1,0,0
V108594,PRO AUTO CARE,525 BIRMINGHAM NEW ROAD,PENNFIELDS,,WOLVERHAMPTON,WV14 9PG,_01902 664000,0,0,0,1,1,1
7420AG,BARRETT MOTOR SERVICES,97 DURBERVILLE ROAD,,,WOLVERHAMPTON,WV2 2HA,_01902 870301,0,0,0,1,0,0
S000773,EVANS HALSHAW FORD WOLVERHAMPTON SERVICE CENTRE,41 BIRMINGHAM ROAD,,,WOLVERHAMPTON,WV2 4DS,_01902 875400,0,0,0,1,0,0
S002578,N/A,FUND UNIT 9,SEAFIRE CLOSE,,YORK,Y030 4UU,_07841 466 279,0,0,0,1,0,1
S002240,HARVEYS OF PICKHILL LTD,CHERRY BEECH GARAGE,PICKHILL,,THIRSK,Y07 4JG,_01845 567512,0,0,0,1,1,1
V102155,ROGER HOLMES VW AUDI SPECIALIST,UNIT 4 RAYLOR CENTRE,JAMES STREET,,YORK,YO1 3DW,_01904 414443,0,0,0,1,0,0
1ALS81,"KWIK-FIT (GB) LTD.,",32-36 ST JOHNS STREET,,,BRIDLINGTON,YO16 5JS,_01262400444,0,0,0,1,0,0
2116AN,BORO TYRES AND EXHAUSTS LTD.,STATION YARD,MIDDLE STREET SOUTH,,DRIFFIELD,YO25 7PS,_01377252896,0,0,0,1,0,0
2067B5,ARMSTRONG MASSEY,BEVERLEY ROAD,,,DRIFFIELD,YO25 7RX,_01377253601,0,0,0,1,0,0
1855AU,WESTMOOR CARS LIMITED,WEST END GARAGE,98 THE VILLAGE,HAXBY,YORK,YO32 8JL,_01904769233,0,0,0,1,0,0
0050B5,HIGHFIELD GARAGE,BUBWITH,,,SELBY,YO8 7DN,_01757288385,0,0,0,1,0,0
